"id","name","state","created_at","updated_at","short_name","tax_id","address1","address2","city","us_state","zipcode","country","notes","external_id","company_type","emails"
1,_bluex,0,2021-08-18 07:43:48.420,2022-02-14 10:24:35.238,_bluex,"12345678",Test Address,"",Taipei,Taipei,"",US,"","",FORWARDER_NVOCC,"{alvin.wu+portal@bluextrade.com,jason+smss2@bluextrade.com,jerry.cheng+csclient@bluextrade.com,jinho.chang+idp@bluextrade.com,kevin+bxpay@bluextrade.com,service.quality+payer@bluextrade.com,vivian.chiang+bxpclient@bluextrade.com}"
2,"Port Alliance Supply Chain Solutions Co., Ltd",0,2021-09-08 03:09:07.335,2021-09-28 06:34:31.763,"Port Alliance Supply Chain Solutions Co., Ltd","25089298","No. 132, No. 11, Section 2, Nanjing Road, Zhongshan District, Taipei City, 10489","",Taipei,Taipei,"",TW,"","",FORWARDER_NVOCC,"{johnny.chen@port-alliance.com.cn,kris.lin@sagaintl.com.tw}"
3,Liyang Shipping Ltd.,0,2021-09-10 09:11:29.722,2021-09-28 08:05:10.656,Liyang Shipping Ltd.,"014401017837705538","Room 501,Zhongming building,  No.100,Long Kou Xi Road.Guangzhou,China","",Guangzhou,Guangzhou,"",CN,"","",FORWARDER_NVOCC,"{stephen@lyshipping.net,yanni@lyshipping.net}"
4,Port Alliance Logistics International Inc.,0,2021-09-22 05:47:39.907,2021-09-28 06:36:22.342,Port Alliance Logistics International Inc.,"0400044454","12029 Mott Street, Arlington, TN, US","",Arlington,TN,"12029",US,"","","","{amber.woods@port-alliance.com,kimberly.wood@port-alliance.com,scott.bales@port-alliance.com}"
5,"TRANSWORLD TRANSPORTATION CO., LTD.",0,2021-09-23 09:45:54.454,2021-10-29 06:52:53.774,"TRANSWORLD TRANSPORTATION CO., LTD.","352726455","No.1 and No.2, No. 130, Section 2, Zhongxiao Road, Zhongzheng District, Taipei","",Taipei,Taipei,"",TW,"","","","{linda@twttwn.com.tw,michael@twttwn.com.tw}"
6,"TIAN RONG LOGISTICS, INC.",0,2021-10-05 06:02:51.667,2022-05-12 04:17:21.343,"TIAN RONG LOGISTICS, INC.","954738559","2075 S. ATLANTIC BLVD., SUITE H, MONTEREY PARK, CA 91754 U.S.A.","",MONTEREY PARK,CA,"91754",US,"","","",{pohsun@trl-usa.com}
7,"Port Alliance Supply Chain Solutions Co., Ltd.",0,2021-10-05 06:05:58.274,2021-10-05 06:07:23.969,"Port Alliance Supply Chain Solutions Co., Ltd.","91310000599769819T",上海市虹口区曲阳路930号6幢275室,"",上海市,"","",CN,"","","",{fannie.shen@port-alliance.com.cn}
8,Blue Ocean International Logistics Online Services (Shenzhen) Limited,0,2021-10-08 08:11:24.037,2021-10-08 08:12:51.269,Blue Ocean International Logistics Online Services (Shenzhen) Limited,"91440300MA5DE2501C",深圳市前海深港合作区前湾一路1号A栋201室,"",深圳市,"","",CN,"","","","{szx.claire.lee@blueoceanlogistics.net,szx.it@blueoceanlogistics.net,szx.yangel.chen@blueoceanlogistics.net}"
9,Blue Ocean International Logistics Asia Limited,0,2021-10-12 07:53:25.744,2021-10-12 07:55:38.238,Blue Ocean International Logistics Asia Limited,"3061898","RMS 2102-3, CHINA INSURANCE GROUP BLDG, 141 DES VOEUX RD, CENTRAL","",Hong Kong,"","",HK,"","","","{hkg.claire.lee@blueoceanlogistics.net,hkg.it@blueoceanlogistics.net,hkg.rainie.yu@blueoceanlogistics.net,hkg.yangel.chen@blueoceanlogistics.net}"
11,"Wiffa Shippingtech Co., Ltd.",0,2021-10-27 06:53:55.476,2021-10-27 06:55:57.062,"Wiffa Shippingtech Co., Ltd.","91210200744355875N",中山区世纪街26号1单元16层1号,"",辽宁省大连市,"","",CN,"","","","{forwardersmart@wiffaorg.net,kangshuchun@qq.com}"
12,AMC Transportation Inc.,0,2021-10-27 06:58:08.889,2021-10-27 07:06:39.178,AMC Transportation Inc.,"260776044","20955 Pathfinder Rd., Suite 230, Diamond Bar, CA","",Diamond Bar,CA,"91765",US,"","","","{amber.woods@amctran.com,ap@amctran.com,ar@amctran.com,finance@amctran.com,irene.ho@amctran.com,sheryl.starcher@sherrysgroup.com}"
14,"BlueX Trade, Inc.",0,2021-12-06 10:16:51.516,2022-02-21 07:26:13.268,"BlueX Trade, Inc.","833196068","20955 Pathfinder Road, Suite 230","",Diamond Bar,CA,"91765",US,"","","","{alvin.wu+admin@bluextrade.com,cando.yeh+finops@bluextrade.com,celine.liu@bluextrade.com,charlotte.chen@bluextrade.com,edward.hood@bluextrade.com,haoen.lee+finops@bluextrade.com,james.chen+bxpadmin@bluextrade.com,jason@bluextrade.com,jay.liang+bluexpay.admin@bluextrade.com,jerry.cheng@bluextrade.com,jim.wu@bluextrade.com,john.fang@bluextrade.com,lance@bluextrade.com,linda.chiang@bluextrade.com,minnie+finops@bluextrade.com,monica.lee+finops@bluextrade.com,reid.chen@bluextrade.com,service.quality+admin@bluextrade.com,vivian.chiang+finops@bluextrade.com}"
15,"H.Saga International Co., Ltd.",0,2021-12-06 10:31:50.477,2022-12-15 07:56:21.864,"H.Saga International Co., Ltd.","25011341","11F, No.132, Sec.2, Nanjing E.Rd., Zhongshan Dist., Taipei City, Taiwan, 10489",,Taipei,Taipei,"10489",TW,"","",,{johnny.chen@sagaintl.com}
16,Panda Ocean Limited,0,2021-12-07 03:04:14.432,2021-12-07 03:06:38.298,Panda Ocean Limited,"13358808","Unit C, 22/F, Roxy Industrial Centre, 58-66 Tai Lin Pai Road, Kwai Chung, N.T. ","",HK,"","",HK,"","","","{chris@pandahk.com,sandylau@pandahk.com,wa@pandahk.com}"
17,"PANDA SUPPLY CHAIN  SERVICE CO.,LTD.",0,2021-12-07 03:04:23.970,2021-12-07 03:08:51.195,"PANDA SUPPLY CHAIN  SERVICE CO.,LTD.","91440300580057539C","Room 301,Floor 3,Huaya Building C2 District,Huaya Industrial Park, Road Jihua,Longhua New District,Shenzhen,Guangdong","",Shenzhen,"","",CN,"","","",{nancyma@pandahk.com}
18,Pacific Heritage Home Fashion Inc,0,2022-01-25 20:47:07.413,2022-01-25 20:47:07.413,Pacific Heritage Home Fashion Inc,"01-0725554","901 Lawson St",,City of Industry,CA,"92748",US,"{}",,,{jennifer@pacificheritageusa.com}
19,T.V.L. Global Logistics Corp.,0,2022-01-29 01:02:32.956,2023-03-28 20:54:09.725,T.V.L. Global Logistics Corp.,"262300588","12880 Moore St.",,Cerritos,CA,"90703",US,"{}",,,{kayliu@tvlgroupusa.com}
20,"Soho Kitchen Studio, Inc (DBA Soho Deco)",0,2022-02-03 23:15:38.147,2022-02-03 23:15:38.147,"Soho Kitchen Studio, Inc (DBA Soho Deco)","20-3496973","16500 Gale Avenue",,City of Industry,CA,"91745",US,"{}",,,{carol@sohodeco.net}
21,Qualiaware Inc.,0,2022-02-04 00:24:54.062,2022-02-04 00:24:54.062,Qualiaware Inc.,"851261898","14999 Summit Dr",,Eastvale,CA,"92880",US,"{}",,,{lynn@qualiaware.com}
22,U.S. Pride Furniture Corp.,0,2022-02-07 18:42:36.918,2022-02-07 18:42:36.918,U.S. Pride Furniture Corp.,"45-5638920","15530 Salt Lake Ave",,City of Industry,CA,"91745",US,"{}",,,"{c9inc@yahoo.com,xifengbram@gmail.com}"
23,Chain Venture Inc,0,2022-02-10 20:40:49.012,2022-02-10 20:40:49.012,Chain Venture Inc,"822132210","11111 Katy Fwy Ste. 910",,Houston,TX,"77079",US,"{}",,,{chainventure.tx@gmail.com}
24,JANS ENTERPRISES CORP,0,2022-02-12 00:29:08.816,2022-02-12 00:29:08.816,JANS ENTERPRISES CORP,"26-1801375","4181 TEMPLE CITY BLVD, STE A",,EL MONTE,CA,"91745",US,"{}",,,"{anastasia@wiracorp.com,anthony@jansfood.com}"
26,"3H Supplies Inc.",0,2022-02-16 09:46:40.194,2022-02-16 09:46:40.194,"3H Supplies Inc.","46-3161131","20955 Pathfinder Rd. Suite 100",,Diamond Bar,CALIFORNIA,"91765",US,"{}",,,{lilian@3hus.co}
27,Artisan Hardwood Inc,0,2022-02-16 19:07:48.555,2022-02-16 19:07:48.555,Artisan Hardwood Inc,"81-2877417","12250 4th Street, Suite B",,Rancho Cucamonga,CA,"91730",US,"{}",,,{jwang@artisanhardwood.com}
28,"Blue Sky Clayworks, Inc.",0,2022-02-21 19:38:40.184,2022-02-21 19:38:40.184,"Blue Sky Clayworks, Inc.","462992677","2075 S. Atlantic Blvd., Ste H.",,Monterey Park,California,"91754",US,"{}",,,{pohsunh@aol.com}
29,PT. Port Alliance,0,2022-02-22 05:35:10.914,2022-02-22 06:18:03.076,PT. Port Alliance,"027505536041000",Gedung The Honey Lady Lt 6 Unit 603 CBD Pluit Jl. Pluit Selatan Raya No. 1,"",Jakarta,"","14450",ID,"{}","","",{sudiyanto.hong@port-alliance.co.id}
30,"Oceanstar Design Group, Inc",0,2022-02-28 21:59:49.321,2022-03-02 02:16:19.180,"Oceanstar Design Group, Inc","208358381",P.O. BOX 5076,"",DIAMOND BAR,CA,"91765",US,"{}","","",{charles@oceanstardesign.com}
31,iCargo Logistics Inc.,0,2022-03-03 19:15:59.720,2022-03-03 19:15:59.720,iCargo Logistics Inc.,"475092587","20538 Carrey Rd.",,Walnut,California,"91789",US,"{}",,,{annie@icargoinc.com}
32,ARES International Logistics Inc.,0,2022-03-14 18:41:05.171,2022-03-14 18:41:05.171,ARES International Logistics Inc.,"471990828","731 S. Garfield Ave. Suite 2B",,Alhambra,CA,"91801",US,"{}",,,{kelvinchen@areslax.com}
33,"3PX USA INC.",0,2022-03-15 23:38:28.134,2022-03-15 23:38:28.134,"3PX USA INC.","270862280","21908 Valley Blvd",,Walnut,CA,"91789",US,"{}",,,"{brian@3pxusa.com,kek@3pxusa.com}"
34,Greating Shipping Company,0,2022-03-16 01:13:01.251,2022-03-16 01:13:01.251,Greating Shipping Company,"251077752","2225 W. Commonwealth Ave., Suite 316",,Alhambra,CA,"91803",US,"{}",,,{jamesc@greating-shipping.com}
35,O K Container Sales Inc.,0,2022-03-17 21:48:25.653,2022-03-17 21:48:25.653,O K Container Sales Inc.,"300067622","2707 E. Valley Blvd. Suite 305",,West Covina,CA,"91792",US,"{}",,,{david@okcontainersales.com}
36,Test Inc.,0,2022-03-24 00:51:07.260,2022-03-24 00:51:07.260,Test Inc.,"12345678",Testing 123,,Test,TE,"01234",US,"{}",,,{wilson35@bu.edu}
37,Ivy Supplies Inc.,0,2022-03-29 01:55:37.907,2022-03-29 01:55:37.907,Ivy Supplies Inc.,"38-4116453","23661 Birtcher Dirve",,Lake Forest,CA,"92630",US,"{}",,,{shipping@oceania-inc.com}
38,VivianTest,0,2022-03-31 08:46:27.019,2022-03-31 08:46:27.019,VivianTest,"12345678","35 State St",,Los Altos,CA,"94205",US,"{}",,,{vivian.chiang@bluextrade.com}
39,Assisto,0,2022-04-06 12:07:22.011,2022-04-06 12:07:22.011,Assisto,"988-09-8988",New Jersey,,Jersey City,New jersey,"07307",US,"{}",,,{roscokaan@gmail.com}
40,"LIKE DREAMS, INC",0,2022-04-06 19:01:32.279,2022-04-06 19:01:32.279,"LIKE DREAMS, INC","27-5423233","4433 PACIFIC BLVD",,VERNON,CALIFORNIA,"90058",US,"{}",,,"{guss@ilikedreams.com,helens@ilikedreams.com}"
41,Honest Health LLC,0,2022-04-10 20:28:45.352,2022-04-10 20:28:45.352,Honest Health LLC,"82-5134709","601 4th Street, Unit 112, Unit 112",,San Francisco,CA,"94107",US,"{}",,,{fel@getpotli.com}
42,"W.H.P.M, INC.",0,2022-04-12 18:56:07.151,2022-04-12 18:56:07.151,"W.H.P.M, INC.","95-4409935","5358 Irwindale Ave",,Irwindale,Ca,"91706",US,"{}",,,"{ap@whpm.com,schen@whpm.com}"
43,ABC Company,0,2022-04-18 19:58:15.149,2022-04-18 19:58:15.149,ABC Company,"12345678","20955 Pathfinder Rd",,Diamond Bar,CA,"91765",US,"{}",,,{jim.wu@bluexpay.com}
45,Paper 360 Inc.,0,2022-04-27 22:11:23.100,2022-04-27 22:11:23.100,Paper 360 Inc.,"264348233","2910 S. Archibald Ave., #A537",,Ontario,CA,"91761",US,"{}",,,{ed@paper-360.com}
46,Sonia Kao,0,2022-05-02 10:00:05.739,2022-05-02 10:00:05.739,Sonia Kao,"123456789",#179 Zhongshan N Road Section 2,,Taipei City,,"104",TW,"{}",,,{soniakao1999@gmail.com}
47,Simple Pair Fashion Design ,0,2022-05-02 21:15:42.494,2022-05-02 21:15:42.494,Simple Pair Fashion Design ,"270176596","347 Primrose Road, Suite C",,Burlingame,CA,"94010",US,"{}",,,{simplepearfashiondesign@gmail.com}
48,"Forte' Turf, Inc. ",0,2022-05-03 16:10:18.897,2022-05-03 16:10:18.897,"Forte' Turf, Inc. ","821893218","4020 N. MacArthur Blvd",,Irving,TX,"75038",US,"{}",,,{julie.forteturfinc@gmail.com}
49,"Hollywood Turf, Inc. ",0,2022-05-03 16:29:31.729,2022-05-03 16:29:31.729,"Hollywood Turf, Inc. ","853156192","690 Ridgeway St",,Pomona,CA,"91768",US,"{}",,,{julie.hollywoodturfinc@gmail.com}
50,E Cargo Inc,0,2022-05-11 00:24:05.941,2022-05-11 00:24:05.941,E Cargo Inc,"821848342","13831 Roswell Road #H",,Chino,CA,"91710",US,"{}",,,"{acct-lax@e-cargogroup.com,scchen-lax@e-cargogroup.com}"
51,Jessie Liu Collection ,0,2022-05-16 20:51:55.486,2022-05-16 20:51:55.486,Jessie Liu Collection ,"270176596","347 Primrose Road, Suite C",,Burlingame,CA,"94010",US,"{}",,,{jessieliujie@hotmail.com}
52,EMCOD INC,0,2022-05-18 20:06:38.882,2022-05-18 20:06:38.882,EMCOD INC,"461530215","646 Flinn Ave Ste. B",,Moorpark,CA,"93021",US,"{}",,,"{accounting@emcod.com,info@emcod.com}"
53,"Agnetix, Inc.",0,2022-05-18 22:40:21.313,2022-05-18 22:40:21.313,"Agnetix, Inc.","823163388","7965 Dunbrook Rd, Suite I",,San Diego,CA,"92126",US,"{}",,,{kevin.cheng@agnetix.com}
54,Cenports Commerce Inc ,0,2022-05-19 00:41:08.659,2022-05-19 00:41:08.659,Cenports Commerce Inc ,"821596694","1742 Sabre Street",,Hayward ,CA,"94545",US,"{}",,,"{derrick@cenports.com,jackie@cenports.com}"
55,Luxy Custom Flooring Inc,0,2022-05-19 19:17:10.591,2022-05-19 19:17:10.591,Luxy Custom Flooring Inc,"842918474","19224 E Walnut Dr N Unit D",,City of Industry,CA,"91748",US,"{}",,,{gerry0215@gmail.com}
56,raging wearing inc,0,2022-05-26 22:35:32.710,2022-05-26 22:35:32.710,raging wearing inc,"270712095","618 brea canyon rd unit D1",,diamond bar ,CA,"91789",US,"{}",,,{ragingwearing@gmail.com}
57,kimikos CAVE,0,2022-06-01 23:57:08.140,2022-06-01 23:57:08.140,kimikos CAVE,"863835474","500 S Los Angeles st #28",,Los Angeles ,CA,"90013",US,"{}",,,{kg660376@gmail.com}
58,ADMORE AIR CONDITIONING CORP,0,2022-06-03 13:21:57.088,2022-06-03 13:21:57.088,ADMORE AIR CONDITIONING CORP,"131695086","835 MCLEAN AVE",,YONKERS ,NY,"10704",US,"{}",,,{randreala@admoreair.org}
59,HAPPY CHILDREN KINDERGARTEN LIMITED LIABILITY COMPANY,0,2022-06-08 04:09:44.438,2022-06-08 04:09:44.438,HAPPY CHILDREN KINDERGARTEN LIMITED LIABILITY COMPANY,"881863057","411 NW  HIGHWAY 69 ",,LEONARD,TX,"75452",US,"{}",,,{admin@happychildren.one}
60,"Le Express (Qingdao) Co., Ltd",0,2022-06-13 05:30:59.721,2022-06-13 05:30:59.721,LeExpress,"91370200","Room 2003, No. 100, Hongkong Middle Rd.",,Qingdao,SD,"266073",CN,"{}",,,{jeffrey@le-express.cn}
61,"Crown Forwarding, Inc",0,2022-06-13 16:51:07.158,2022-06-13 16:51:07.158,CROWN TRADING INTERNATIONAL LLC,"953489805","5252 Argosy Ave",,Huntington Beach,CA,"92649",US,"{}",,,{bgurr21969@aol.com}
62,The Gifting Group LLC,0,2022-06-13 20:54:21.408,2022-06-13 20:54:21.408,Alder Creek Gift Baskets,"451827940","42210 Zevo Dr",,Temecula,CA,"92590",US,"{}",,,"{greg@tgggifts.com,receivables@tgggifts.com,samanthas@tgggifts.com,vivianao@tgggifts.com}"
63,"Speeding Rocket Co., Ltd",0,2022-06-15 08:05:46.480,2022-06-15 08:05:46.480,"Speeding Rocket Co., Ltd","65279724","8F., No. 217, Sec. 2, New Taipei Blvd., Xinzhuang Dist.",,New Taipei City ,,"242032",TW,"{}",,,{gary@speeding-rocket.com}
64,Unique One Logistics,0,2022-06-15 19:02:11.462,2022-06-15 19:02:11.462,UNIQUE ONE LOGISTICS,"844895794","12523 Limonite Ave STE 440-411",,Mira Loma,CA,"91752",US,"{}",,,{ops@unique1logistics.com}
65,"Rufus Labs, Inc",0,2022-06-17 18:36:46.338,2022-06-17 18:36:46.338,"Rufus Labs, Inc","813483567","914 N FORMOSA AVE",,LOS ANGELES,CA,"90046",US,"{}",,,{mbarreto@rufuslabs.com}
66,Ashtel Studios Inc ,0,2022-06-22 21:24:11.618,2022-06-22 21:24:11.618,Ashtel Studios Inc ,"900260613","1610 E. Philadelphia St ",,Ontario ,CA,"91761",US,"{}",,,"{anish@ashtelstudios.com,jimmy@ashtelstudios.com,ken@ashtelstudios.com,rae@ashtelstudios.com,sukhi@ashtelstudios.com}"
67,HAUSLANE,0,2022-06-23 16:13:01.698,2022-06-26 15:34:53.162,HAUSLANE,"824173062","267 WATTIS WAY","",SOUTH SAN FRANCISCO,CA,"94080",US,"{}","","","{bobo@hauslane.com,calvin@hauslane.com}"
68,Nippon Yusen Kabushiki Kaisha,0,2022-06-24 13:02:28.376,2022-06-24 13:02:28.376,NYK Group Americas Inc.,"135630308","300 Lighting Way, 5th Floor",,Secaucus,NJ,"07094",US,"{}",,,"{diana.arroyo@nykgroup.com,heather.twombly@nykgroup.com,jeffrey.lombardi@nykgroup.com,laura.munoz@nykgroup.com,megan.smith@nykgroup.com,phillip.bennett@nykgroup.com,rebecca.kerner@nykgroup.com,renee.wilson@nykgroup.com,rosa.grossman@nykgroup.com,sarah.lafan@nykgroup.com,sarah.thrane-temp@nykgroup.com,sherri.panzilius@nykgroup.com,sylvia.ly@nykgroup.com,wanda.rivera@nykgroup.com}"
69,Asia Pacific Shipping Co Ltd,0,2022-06-26 18:17:46.167,2022-06-26 18:17:46.167,Asia Pacific Shipping Co Ltd,"461107030","14 W Hawthorne Ave #100",,Valley Stream,NY,"11580",US,"{}",,,{nicleeasiapup71@gmail.com}
70,Yescom USA Inc,0,2022-06-27 19:34:47.447,2022-06-27 19:34:47.447,Yescom USA Inc,"753021894","185 N Sunset Ave",,City of Industry,CA,"91744",US,"{}",,,"{accounting@thelashop.com,winnie_chan@thelashop.com}"
71,"The City, Inc.",0,2022-06-27 19:43:12.261,2022-06-27 19:43:12.261,City Global,"271945100","9800 Wilshire Blvd",,Beverly Hills,CA,"90212",US,"{}",,,{accounting@cityglobal.com}
72,KC Global Network Inc,0,2022-07-06 17:59:04.195,2022-07-06 17:59:04.195,KC Global Network Inc,"371826343","20501 Ventura Blvd. #106",,woodland hills ,CA,"91364",US,"{}",,,"{havri@kcglobalnetwork.com,sales@kcglobalnetwork.com}"
73,JayneTest130,0,2022-07-12 07:51:15.859,2022-07-12 07:51:15.859,JayneTest130,"123496789","6753 JONES MILL CT. SUITE A NORCROSS,GA",,San Fransico,AK,"30092",US,"{}",,,{jayne.lin+test130@bluextrade.com}
74,Coollid Corporation,0,2022-07-13 20:45:34.605,2022-07-13 20:45:34.605,Coollid Corporation,"821550234","7545 Irvine Center Drive, Suite 200",,Irvine,CA,"92618",US,"{}",,,{milancoollid@gmail.com}
75,"SEA-BIG EXPRESS, INC.",0,2022-07-15 23:41:42.870,2022-07-15 23:41:42.870,"SEA-BIG EXPRESS, INC.","330978550","198 W. 146TH ST.",,GARDENA,CA,"90248",US,"{}",,,{steve@seabig.com}
76,Sarah Hayes,0,2022-07-17 19:36:57.202,2022-07-17 19:36:57.202,"Rgs Products, Inc","264360627","455 W 2Nd St",,Waterford,PA,"16441",US,"{}",,,{robertycrain@hotmail.com}
77,INTERNATIONAL DOOR CLOSERS,0,2022-07-18 21:36:22.446,2022-07-18 21:36:22.446,INTERNATIONAL DOOR CLOSERS,"952558021","4431 E. LA PALMA AVE.",,ANAHEIM,CA,"92807",US,"{}",,,"{lcervero@intldoorclosers.com,pbeltran@intldoorclosers.com}"
78,BLUE OCEAN LOGISTICS CORPORATION,0,2022-07-18 23:11:07.179,2022-07-18 23:11:07.179,NA,"264636577","18118 3/4 S. BROADWAY",,GARDENA,CA,"90248",US,"{}",,,{import@bologistic.com}
79,Valfre,0,2022-07-19 19:14:10.491,2022-07-19 19:14:10.491,Valfre,"464659320","1108 S Los Angeles St",,Los Angeles,CA,"90015",US,"{}",,,{shelby@valfre.com}
80,Total Paper and Packaging Inc,0,2022-07-22 17:16:12.619,2022-07-22 17:16:12.619,Target Source,"270168507","2175 AGATE CT",,SIMI VALLEY,CA,"93065",US,"{}",,,{rajiv@totalpaper.net}
81,UNITED CARGO MANAGEMENT INC,0,2022-07-29 19:13:36.295,2022-07-29 19:13:36.295,UNITED CARGO MANAGEMENT INC,"954114867","19401 S. MAIN ST. STE 202",,GARDENA,CA,"90248",US,"{}",,,{thomaslee@ucmcargo.com}
82,Tali Corp,0,2022-08-01 22:07:21.493,2022-08-02 03:40:06.881,bkr,"270906796","340 S LEMON AVE #2262","",WALNUT,CA,"91789",US,"{}","","",{adam@mybkr.com}
83,The Uplifters' Prima PBC,0,2022-08-01 23:37:13.635,2022-08-01 23:37:13.635,Prima,"831034950","2633 Lincoln Blvd #224",,Santa Monica,CA,"90405",US,"{}",,,{emily@fullstackfinance.com}
85,"Finvoice, Inc.",0,2022-08-05 03:56:50.425,2022-08-05 03:56:50.425,"Finvoice, Inc.","472972034","1559B Sloat Boulevard",,San Francisco,CA,"94132",US,"{}",,,{andrew@getfinvoice.com}
86,Lixit Corporation,0,2022-08-05 18:28:08.592,2022-08-05 18:28:08.592,Lixit Corporation,"680147154","100 Coombs Street",,Napa,CA,"94559",US,"{}",,,{ada@lixit.com}
87,ABI USA SALES CORP,0,2022-08-05 22:21:03.437,2023-09-27 01:48:44.239,ABI,"954880477","2300 s hill st",,los angeles,CA,"90007",US,"{}","",,"{bryan@abiusagroup.com,james@abiusagroup.com}"
88,"Indo European Foods, Inc",0,2022-08-08 20:07:14.905,2022-08-08 20:07:14.905,Indo European Foods,"953548726","3420 S Malt Ave",,Commerce,CA,"90040",US,"{}",,,"{dougb@indo-euro.com,veronica@indo-euro.com}"
89,NORMI&CORE INDUSTRIAL LIMITED,0,2022-08-09 07:15:27.189,2022-08-09 07:15:27.189,SUPPLIER,"69323146",UNIT 2508A 25/F BANK OF AMERICA TOWER 12 HARCOURT RD CENTRAL HONG KONG,,HONGKONG,"","999077",HK,"{}",,,{allen@nc-sofas.com}
90,QTAA LIMITED,0,2022-08-09 09:33:55.017,2022-08-11 07:44:48.866,vendor,"35973543","1/F XIU PING COM BLDG, 104 JERVOIS STREET,",,"HONG KONG, CHINA (HKG)","","852",HK,"{}",,,{wyfungco@hotmail.com}
91,Tanera Transport LLC,0,2022-08-11 19:59:51.975,2022-08-11 19:59:51.975,Tanera Transport LLC,"832766372","20955 Pathfinder Rd. STE 215",,Diamond Bar,CA,"91765",US,"{}",,,{accounting@taneratransport.com}
92,CARGO LINK USA LLC,0,2022-08-15 05:58:48.615,2022-08-16 17:00:07.474,CARGO LINK USA,"822137591","8811 Garvey ave  suite 206",,ROSEMEAD,CA,"91770",US,"{}",,,{imports@cargolinkusa.com}
93,"XIAMEN TRITRANSLINKS LOGISTICS CO.,LTD",0,2022-08-15 09:30:15.274,2022-08-15 09:30:15.274,LOGISTICS,"91350206093267918M","Room 201A201C, Norinco Business Plaza No. 6 Huli Avenue Xiamen 361009, China",,Xiamen,FJ,"361009",CN,"{}",,,{louise@ttlchn.com}
94,GUANGDONG G-TOP IMPORT AND EXPORT COMPANY LIMITED,0,2022-08-18 09:23:49.379,2022-08-18 09:23:49.379,import and export business,"91440606729209095Y","NO. 26, FENGNING ROAD, RONGGUI, SHUNDE, FOSHAN, GUANGDONG, CHINA",,FOSHAN,"","528303",CN,"{}",,,{shipping@g-top.net}
95,KidsEmbrace LLC,0,2022-08-19 18:14:11.082,2022-08-19 18:14:11.082,Inspired Products Group,"711030778","6711 Odessa Ave",,Van Nuys,CA,"91406",US,"{}",,,"{george@kidsembrace.com,lakshmi@kidsembrace.com}"
96,OEC Shipping Los Angeles Inc.,0,2022-08-22 18:47:33.999,2022-08-22 18:47:33.999,OEC Shipping Los Angeles Inc.,"954682826","13100 Alondra Blvd Ste 100",,Cerritos,CA,"90703",US,"{}",,,{pkao.lax@oecgroup.com}
97,"FLEXPORT, INC",0,2022-08-23 22:14:21.447,2022-08-23 22:14:21.447,"FLEXPORT INTERNATIONAL, LLC","464803755","760 MARKET STREET , 8TH FLOOR",,SAN FRANCISCO,CA,"94102",US,"{}",,,{lwest@flexport.com}
98,"TKK CUSTOMS BROKERS, INC",0,2022-08-23 23:51:00.568,2022-08-23 23:51:00.568,SAME,"371862400","11099 S. LA CIENEGA BLVD, SUITE 215",,LOS ANGELES,"","90045",US,"{}",,,{vivian@tkkcustombrokers.com}
99,"Huizhou Winston Home Furnishing CO., LTD",0,2022-08-24 07:52:31.940,2022-08-24 07:52:31.940,"Production and sales: furniture, furniture accessories; Domestic trade; Import and export of goods.","91441303MA4X1DLC76",Winston Industrial Park Xiaobi Xinfeng Village Xinxu Town Huiyang District,,Huizhou,GD,"516223",CN,"{}",,,{sunnysutt@163.com}
100,"Cross Si, Inc",0,2022-08-24 23:05:41.375,2022-08-24 23:05:41.375,Cross Si,"814202354","4621 Pacific Blvd",,Vernon,CA,"90058",US,"{}",,,{2001saturnllc@gmail.com}
101,"GUANGZHOU LUOGELANG LEATHER CO., LTD",0,2022-08-25 10:50:16.778,2024-05-09 06:28:39.341,"GUANGZHOU LUOGELANG LEATHER CO., LTD","91440114563954166E","No. 22 1st Nanhe Street, Union Village, Shiling Town, Huadu District",,Guangzhou,GD,"00000",CN,"{}",,,{sungil_daniel@163.com}
102,"GUANGZHOU LAIKA LEATHER CO., LTD",0,2022-08-26 02:01:38.228,2022-10-31 07:05:41.292,GUANGZHOU LAIKA LEATHER,"91440101MA59GD9Y2X","FLOOR 1-6,LICHENG STREET,HECHENG VILLAGE,SHILING TOWN,HUADU DISTRICT,GUANGZHOU CITY,GUANGDONG PROVINCE,CHINA",,GUANGZHOU,GD,"510800",CN,"{}",,,{tang_q.he@163.com}
103,KIDSTALE PLAYGROUNDS LLC,0,2022-08-26 19:52:57.442,2022-08-26 19:52:57.442,WHOLESALER,"861574629","11945 N FREEWAY SUITE 200",,HOUSTON,TX,"77060",US,"{}",,,"{accounting@kidstaleplaygrounds.com,sean.s@kidstaleplaygrounds.com}"
104,"GUANGZHOU KAYEE ENTERPRISE SERVICES CO.,LTD",0,2022-08-27 10:05:46.931,2023-07-19 07:30:58.942,"GUANGZHOU KAYEE ENTERPRISE SERVICES CO.,LTD","91440114MA9YCCL06D","ROOM1201, NO.91-5 SHILING AVENUE WEST, HUADU DISTRICT,",,GUANGZHOU,GD,"510800",CN,"{}",,,{fashionhouse_ly@163.com}
105,Brookline LLC,0,2022-08-29 10:03:50.324,2022-08-29 10:03:50.324,LILOGY ,"824363477","60 Broad St.",,New York,NY,"10004",US,"{}",,,"{andrew@lilogy.com,billing@lilogy.com}"
106,"APEX MARITIME CO., INC",0,2022-08-29 20:52:25.117,2022-08-29 20:52:25.117,KERRY APEX (SFO),"943112017","577 AIRPORT BOULEVARD, SUITE 800",,BURLINGAME,CA,"94010",US,"{}",,,{yuki.mui@kerryapex.com}
107,"Anji Weilai Furniture Co., LTD.",0,2022-08-30 07:19:46.921,2022-08-30 07:19:46.921,"Anji Weilai Furniture Co., LTD.","91330523MA2B4N3E9D","Shiguqiao Industrial Park, Xiaofeng Town, Anji County",,Huzhou,ZJ,"313301",CN,"{}",,,{leoyan@westlife-furniture.com}
108,"ZHUHAI SHENGCHANG ELECTRONICS CO.,LIMITED",0,2022-09-02 05:55:19.456,2022-09-02 05:55:19.456,"ZHUHAI SHENGCHANG ELECTRONICS CO.,LIMITED","91440400684486370W","Building 3, No.19, Yongtian Road, Xiangzhou District",,Zhuhai City,GD,"519070",CN,"{}",,,{oversea5@scpowe.net.cn}
109,test098,0,2022-09-06 10:10:21.400,2022-09-06 10:10:21.400,na,"009868888","320932 jake st",,san francisco,CA,"876765",US,"{}",,,{sean.omalley@yahoo.com}
110,Transworld Shipping USA Inc.,0,2022-09-12 17:50:58.562,2022-09-21 18:59:39.321,Transworld Shipping USA Inc.,"330452565","3748 Bayer Avenue",,Long Beach,CA,"90808",US,"{}","",,{charlie.sundberg@twship.com}
111,Veteran Building Maintenance & Supply Inc,0,2022-09-13 18:31:08.188,2022-09-13 18:31:08.188,Veteran Building Maintenance & Supply Inc,"834314821","1648 W Orange Grove Ave",,Pomona ,CA,"91768",US,"{}",,,{jose@vbm-clean.com}
112,West Coast Glass & Packaging Group LLC,0,2022-09-13 23:17:00.658,2022-09-13 23:17:00.658,West Coast Glass & Packaging Group,"862903948","3020 Bridgeway Suite 294",,Sausalito,CA,"94965",US,"{}",,,"{carson@wcgpgroup.com,jeff@wcgpgroup.com}"
113,"Zhongyi Lighting Technology Co., Ltd.",0,2022-09-20 16:17:57.550,2022-09-21 10:39:57.165,Manufacturing,"55946543","No.7-1, Zhongnan Road, Ligang Township",,PingtungCounty,"","90544",TW,"{}","",,{jye@jengyu.com.tw}
114,"Qinhuangdao Ruiquan glassware CO.,Ltd",0,2022-09-21 01:16:07.955,2022-09-21 01:16:07.955,Glass bottle,"91130302MA0FG0YR5C","zhuzhuang village, Duzhuang town, Haigang District, Qinhuangdao, Hebei Province",,Qinhuangdao,HE,"066000",CN,"{}",,,{zhanglh.kevin@foxmail.com}
115,"BestOcean Worldwide Logistics, Inc.",0,2022-09-22 23:04:51.031,2022-09-28 16:14:56.493,"BestOcean Worldwide Logistics, Inc.","272169825","4411 SCHAEFER AVE",,CHINO,CA,"91710",US,"{}","",,{gloria.liu@bestocean.com}
116,Jet-Speed Logistics (USA) LLC,0,2022-09-26 19:48:33.997,2022-09-26 19:48:33.997,Jet-Speed Logistics (USA) LLC,"364488171","900 N Arlington Heights Rd, Suite 150",,Itasca,IL,"60143",US,"{}",,,{margaret.walos@jetspeed-usa.com}
117,"Zhongshan HuiQing Trading CO., LTD",0,2022-09-28 01:02:11.248,2022-10-05 06:11:41.153,manufacturing and trading,"91442000MA7N7JEW1N","Block 3, Tong Mao Industnal Road ,Xiaolan , Zhongshan (B021 Xing Peng East zone Real Estate, Bldg 2,East zone Joint  Economic Association ,4th Factory Area , Xiao Lan Town),GD,China",,Zhongshan,"","528414",CN,"{}",,,{sales@promo-engineering.com}
118,POP Paddleboards Inc.,0,2022-09-28 17:16:08.125,2022-09-28 17:16:08.125,POP Paddleboards Inc.,"455574008","301 W Dyer Rd",,Santa Ana,CA,"92707",US,"{}",,,{nick@popboardco.com}
119,T4 Manufacturing LLC,0,2022-09-28 22:40:57.748,2022-09-28 22:40:57.748,T4 Manufacturing LLC,"813165130","140 Industrial Blvd.",,Sugar Land,TX,"77478",US,"{}",,,{hang@t4spa.com}
121,"O-I Packaging Solutions, LLC",0,2022-09-30 21:59:15.405,2022-10-03 22:57:34.302,O-I Packaging Solutions LLC,"471908658","5200 Tennyson Parkway, Suite 100",,Plano,TX,"75024",US,"{}",,,{leigh.slade@o-i.com}
122,sean biz,0,2022-10-03 07:44:11.347,2022-10-03 07:44:11.347,na,"234512345","2345 sdf",,kdlkd ,CO,"94111",US,"{}",,,{sean@bluextrade.com}
123,Best of Times LLC,0,2022-10-04 18:20:34.536,2022-10-04 18:20:34.536,Best of Times,"900579925","800 N. Twin Oaks Valley Road, Suite 101",,San Marcos,CA,"92069",US,"{}",,,{alex@bestoftimesusa.com}
124,"Sam's Trading, CO.",0,2022-10-06 20:53:46.947,2022-10-06 20:53:46.947,"Sam's Trading, CO.","954533329","1567 E ADAMS BLVD",,LOS ANGELES,CA,"90011",US,"{}",,,{samstrading0110@yahoo.com}
125,"Collegewood Apartments, Inc",0,2022-10-10 19:31:31.658,2022-10-10 19:31:31.658,"Collegewood Apartments, Inc","272890339","1955 COLLEGEWOOD DR",,MORRISTOWN,TN,"37813",US,"{}",,,{krenzerrhonda@gmail.com}
126,NP INTERNATIONAL LLC,0,2022-10-12 17:47:24.081,2022-10-12 17:47:24.081,K PACK,"813356494","2122 w flotilla street",,montebello,CA,"90640",US,"{}",,,{npinternationalllc@gmail.com}
127,Hansung USA LLC,0,2022-10-12 18:07:58.815,2022-10-12 18:07:58.815,Hansung USA LLC,"822065998","15375 Barranca Parkway",,Irvine,CA,"92618",US,"{}",,,{jadenchoi@hansungusa.com}
128,California Cane Sugar Inc,0,2022-10-12 19:48:40.435,2022-10-12 19:48:40.435,California cane sugar inc,"851219844","2701 S SANTA FE AVE",,Vernon,CA,"90058",US,"{}",,,{king@californiacanesugar.com}
129,"Chinabest Home Appliance Co., Ltd.",0,2022-10-13 05:39:56.595,2022-10-13 05:39:56.595,"Chinabest Home Appliance Co., Ltd.","91442000560848325W","No 2, Fuqing Yi Road, Henglan",,Zhongshan,GD,"528478",CN,"{}",,,{ken@chinabest.com.cn}
130,England Logistics,0,2022-10-13 13:12:22.414,2022-10-13 13:12:22.414,England Logistics,"870544734","1325 S 4700 W",,Salt Lake City ,UT,"84104",US,"{}",,,{javtrejo@englandlogistics.com}
131,SBU GROUP LP,0,2022-10-19 14:37:17.987,2022-10-19 14:37:17.987,APOLLO DISTRIBUTORS,"208752765","10510 ROCKLEY ROAD",,HOUSTON,TX,"77099",US,"{}",,,{apollodistributors@yahoo.com}
132,cabtop solutions inc,0,2022-10-21 18:13:53.478,2022-10-21 18:13:53.478,cabtop solutions inc,"842470552","6828 Stockport 78239",,San Antonio,TX,"78239",US,"{}",,,{cabtopinc@yahoo.com}
133,"CREATIVE PET GROUP,LLC",0,2022-10-24 17:42:32.110,2022-10-24 17:42:32.110,"CREATIVE PET GROUP,LLC","460734861","43 west 33rd room 603",,NEW YORK,NY,"10001",US,"{}",,,{joey@cambridgehg.com}
134,Test Vendor (DO NOT USE),0,2022-10-26 04:59:12.514,2022-10-26 04:59:12.514,Test Vendor (DO NOT USE),"123456780","123 Salt Street",,Arlington,TN,"38002",US,"{}",,,"{jason+testvendorach@bluextrade.com,service.quality+vendor@bluextrade.com}"
135,"Po Campo, LLC",0,2022-10-26 20:05:11.432,2022-10-26 20:05:11.432,Po Campo,"264062230","2785 Frederick Douglass Blvd.",,New York City,NY,"10039",US,"{}",,,{maria@pocampo.com}
136,"HONGKONG MARUSSIA LOGISTIC CO., LIMITED",0,2022-11-02 03:49:16.506,2022-11-02 03:49:16.506,"HONGKONG MARUSSIA LOGISTIC CO., LIMITED","63772715-000-09-22-1",FLAT 01C3 10/F  CARNIVAL COMMERCIAL BUILDING 18 JAVA ROAD,,North Point,"","00000",HK,"{}",,,{leslie@szhuogui.com}
137,"Worldwide Express Operations, LLC",0,2022-11-03 14:08:27.934,2022-11-03 14:08:27.934,"Worldwide Express Operations, LLC","463282246","2323 Victory Ave., Suite 1600",,Dallas,TX,"75219",US,"{}",,,{john.pressley@wwex.com}
138,"HANGZHOU SUNSHINE TEXTILE CO., LTD",0,2022-11-04 02:20:56.907,2024-05-09 06:29:09.501,"HANGZHOU SUNSHINE TEXTILE CO., LTD","91330108MA2H0FBT4A","Room B705,7/F,Building B,58 Qiuyi Road,Binjiang District",,Hangzhou,ZJ,"310052",CN,"{}","",,{nicole@cnrainy.com}
139,Standard Forwarding llc,0,2022-11-05 13:55:30.439,2022-11-05 13:55:30.439,Standard Forwarding llc,"271883111","2925 morton drive",,east moline,IL,"61244",US,"{}",,,{ecarlson072@gmail.com}
140,"Struktur Design Group, LLC",0,2022-11-05 18:42:52.760,2022-11-05 18:42:52.760,"Struktur Design Group, LLC","562677859","8001 west tidwell rd",,houston,TX,"77092",US,"{}",,,{timmymooree@consultant.com}
141,"TYCS LOGISTICS, INC.",0,2022-11-08 17:39:58.646,2022-11-10 04:02:15.422,Tycs Logistic,"320511613","16331 CARMENITA ROAD","",CERRITOS,CA,"90703",US,"{}","","",{acc.us@tycslogis.com}
142,sprague holding company llc,0,2022-11-11 10:21:26.072,2022-11-11 10:21:26.072,richard sprague,"114545033","121 shaw blvd",,fort myers,FL,"33905",US,"{}",,,{gsprague81@hotmail.com}
143,Maxton Shipping inc.,0,2022-11-14 12:56:55.207,2022-11-14 12:56:55.207,Maxton Shipping,"832199455","3555 Cincinnati Avenue",,Rocklin,CA,"95765",US,"{}",,,{tim@maxtonshipping.com}
144,Networks LLP,0,2022-11-14 13:30:08.424,2022-11-14 13:30:08.424,Carrier,"124124124124124",Княгинина 8,,Nur-sultan,,"010000",HK,"{}",,,{yerbakhyt@gmail.com}
145,"Bed of Nails, Inc.",0,2022-11-16 13:24:35.756,2022-11-16 13:24:35.756,"Bed of Nails, Acubliss","455465847","408 West Ortega Street",,Santa Barbara,CA,"93101",US,"{}",,,{breeze@bedofnails.org}
146,ClaysTest,0,2022-11-16 22:36:57.127,2022-11-16 22:36:57.127,Clay,"012345678","500 Folsom Street",,San Francisco,CA,"94105",US,"{}",,,{clayhstr11@gmail.com}
147,SYNERGY LINK CORP,0,2022-11-18 22:08:31.732,2022-11-18 22:08:31.732,SYNERGY LINK CORP,"203467365","12618 YUKON AVE",,HAWTHORNE,CA,"90250",US,"{}",,,{slcargo@hotmail.com}
148,"TUFFSTUFF FITNESS INT'L, INC",0,2022-11-21 23:09:25.542,2022-11-21 23:09:25.542,"TUFFSTUFF FITNESS INT'L, INC","330542199","13970 NORTON AVE",,CHINO,CA,"91710",US,"{}",,,"{jreese@tuffstufffitness.com,msilvano@tuffstufffitness.com}"
149,"NINGBO SCMO I&E CO.,LTD",0,2022-11-23 02:16:03.692,2022-11-23 02:16:03.692,"NINGBO SCMO I&E CO.,LTD","91330201MA2CHGTY05","1502, Ningshing building, 666 Jiangnan Road, Yinzhou district, Ningbo 315040, China.",,Ningbo,ZJ,"315040",CN,"{}",,,{sunny.ku@nehchina.com}
150,goldstar global logistic llc,0,2022-11-28 02:31:03.515,2022-11-28 02:31:03.515,goldstar global logistic llc,"274379956","99 W HAWTHORNE AVE, STE 302",,VALLEY STREAM,NY,"11580",US,"{}",,,{kunj@gglogistic.com}
151,Shenzhen Tosell Shipping Worldwide Limited,0,2022-12-01 09:34:17.592,2023-02-24 07:21:56.063,Shenzhen Tosell Shipping Worldwide Limited,"91440300MA5GUQ507A","ROOM 304, FLOOR 3, BUILDING 2, YUNLI INTELLIGENT PARK, NO.3, CHANGFA MIDDLE ROAD, YANGMEI COMMUNITY, BANTIAN STREET, LONGGANG DISTRICT, SHENZHEN CITY, GUANGDONG PROVINCE, 518000",,shenzhen,GD,"518000",CN,"{}","",,{changling@tosellshipping.com}
152,GAC Energy & Marine Services LLC,0,2022-12-05 21:46:30.679,2022-12-05 21:46:30.679,GAC North America Logistics,"272143944","16200 Central Green Blvd",,Houston,TX,"77032",US,"{}",,,{anita.abraham@gac.com}
153,SAVASY CORPORATION,0,2022-12-06 07:34:06.086,2022-12-07 07:33:25.275,SAVASY CORPORATION,"09422109","7th Floor, No. 62, Zhou Zi St., Neihu District, Taipei, Taiwan",,TAIPEI,"",TAIWAN,TW,"{}",,,{sales4@mbc-hardware.com}
154,"Exquis, Inc.",0,2022-12-07 22:17:53.539,2022-12-07 22:17:53.539,"Exquis, Inc.","273373624","10918 SAINT LOUIS DRIVE UNIT 1",,EL MONTE,CA,"91731",US,"{}",,,{contact@exquis.info}
155,Arcbest,0,2022-12-07 23:02:31.453,2022-12-07 23:02:31.453,Arcbest/Molo,"814388026","3801 Old Greenwood Road",,Fort Smith,AR,"72903",US,"{}",,,{pip@arcb.com}
156,Paper Solutions Inc,0,2022-12-09 22:35:21.501,2022-12-09 22:35:21.501,Paper Solutions Inc,"800462656","342  37th Street",,Brooklyn,NY,"11232",US,"{}",,,{paperssolutions@aol.com}
157,Schafermeyer Properties,0,2022-12-11 16:27:07.915,2022-12-11 16:27:07.915,Schafermeyer Properties,"851626639","211 spring Ave ",,Lutherville ,MD,"21093",US,"{}",,,{schafermeyerglass@gmail.com}
158,HNF Trading Inc,0,2022-12-12 09:02:46.781,2022-12-12 09:02:46.781,HNF Trading Inc,"882092013","1984 BLY RD",,EAST MEADOW,NY,"11554",US,"{}",,,{contact@hnftrading.com}
159,FFG LIMITED,0,2022-12-14 07:41:34.764,2022-12-14 07:41:34.764,FFG LIMITED,"33996951-000-10-20-4 (0)","27F MORRISON PLAZA, 5-9 MORRISON HILL ROAD",,"CAUSEWAY BAY, HONG KONG","",CAUSEWAY BAY,HK,"{}",,,{nicolas@ffg-limited.com}
160,"A SHIPPING, INC.",0,2022-12-16 00:00:17.166,2022-12-16 00:00:17.166,"A SHIPPING, INC.","272118567","430 S GARFIELD AVE, SUITE 403",,ALHAMBRA,CA,"91801",US,"{}",,,{young.lam@ashippingcorp.com}
161,Surfgistics LLC,0,2022-12-20 17:58:26.553,2022-12-20 17:58:26.553,Surfgistics Worldwide,"825446711","323 Sunny isles blvd.  Suite 744",,Sunny isles Beach fl 33154,FL,"33160",US,"{}",,,"{isaac@surfgistics.com,joe@surfgistics.com}"
162,GYMER CHIROPRACTIC CLINIC,0,2022-12-22 09:17:25.806,2022-12-22 09:17:25.806,GYMER CHIROPRACTIC CLINIC,"800975274","1230 E Columbia Ave",,Battle Creek,MI,"49014",US,"{}",,,{elainamontieracx46@gmail.com}
163,GRANT HAYWARD,0,2022-12-24 05:40:22.219,2022-12-24 05:40:22.219,GRANT HAYWARD,"921363814","2515 RAVINESIDE LN N",,HOWELL,MI,"48843",US,"{}",,,{amaliabennett28@gmail.com}
164,VS Athletics,0,2022-12-28 00:03:46.068,2022-12-28 00:03:46.068,VS Athletics,"770321878","1450 W 228th St, Suite 8",,Torrance,CA,"90501",US,"{}",,,{lynnette@vsathletics.com}
165,UNION PAPER CORPORATION,0,2022-12-29 02:59:26.798,2022-12-29 02:59:26.798,UNION PAPER CORPORATION,"04380087","NO.65,Ruinong,Linnei Township",,Yunlin County,"","64345",TW,"{}",,,{audi3268@upcpaper.com}
166,TRI-TRANSLINKS GLOBAL LIMITED,0,2023-01-03 03:49:51.415,2023-01-03 09:42:38.596,TRI-TRANSLINKS GLOBAL LIMITED,"7331025200008211","Rm 502C, 5 / F, Ho King Commercial Centre, 2-16 Fa Yuen Street, Mong Kok, Kowloon, Hong Kong",,Hong Kong,"","999077",HK,"{}",,,{info@ttlchn.com}
167,Savino Del Bene USA,0,2023-01-04 14:09:40.894,2023-01-09 17:58:33.471,Savino Del Bene USA,"113402863","34 Englehard Ave",,Avenel,NJ,"07001",US,"{}",,,{brian.leach@savinodelbene.com}
168,United Plant Growers Inc,0,2023-01-06 18:18:29.296,2023-01-06 18:18:29.296,United Plant Growers Inc,"330783952","1054 Mar Vista Dr",,Vista,CA,"92081",US,"{}",,,{marilu@unitedplantgrowers.com}
169,Grip Clean LLC,0,2023-01-10 17:58:50.717,2023-01-10 17:58:50.717,Grip Clean,"471622012","41615 Date St. Ste 108",,Murrieta,CA,"92562",US,"{}",,,{bryce@gripclean.com}
170,radar development llc,0,2023-01-10 23:28:18.660,2023-01-10 23:28:18.660,radar development llc,"301303436","1007 N ORANGE ST 4TH FL 340",,WILMINGTON ,DE,"19801",US,"{}",,,{rmorel@radardv.com}
171,"Kingsson Co., LTD",0,2023-01-16 05:45:50.470,2023-01-16 05:45:50.470,"Kingsson Co., LTD","69354409","No. 595, Sec. 2, Minyou Rd.,  Yangmei Dist.,  ",,Taoyuan City ,,"326004",TW,"{}",,,{bryan@ttcoating.com.tw}
172,A  L Footwear LLC,0,2023-01-20 00:10:27.229,2023-01-20 00:10:27.229,Lauren Lorraine,"900916732","7036 JUDI STREET",,DALLAS,TX,"75252",US,"{}",,,{av@laurenlorraine.com}
173,Inland Empire Professional Photographers And Videographers Inc,0,2023-01-26 12:05:39.462,2023-01-26 12:05:39.462,Inland Empire Professional Photographers And Videographers Inc,"330428688","370 W GRAND BLVD",,CORONA,MN,"92882",US,"{}",,,{christophercramirez@outlook.com}
174,"CHENGDU HONEST DEAL IMP & EXP TRADING CO.,LTD",0,2023-01-31 08:30:06.555,2023-01-31 08:30:06.555,"CHENGDU HONEST DEAL IMP & EXP TRADING CO.,LTD","91510100MA62MHGQ0W","NO.406, 4TH FLOOR ,TIANFU INNOVATION CENTER, SOUTH OF TIANFU AVENUE",,CHENGDU,SC,"610299",CN,"{}",,,{luyee@honestdeal.cn}
175,"LANDSCENE LOGISTICS CO.,LTD",0,2023-02-02 03:24:20.703,2023-02-02 03:24:20.703,"LANDSCENE LOGISTICS CO.,LTD","91310000MA1H3T5K5K","ROOM1507,285 JIANGUO WEST ROAD,XUHUI DISTRICT,SHANGHAI,CHINA",,SHANGHAI,SH,"200031",CN,"{}",,,{arline@landscenelogistics.com}
176,KWOK RUI INDUSTRIAL LIMITED,0,2023-02-02 05:04:36.750,2023-02-07 02:10:40.769,KWOK RUI INDUSTRIAL LIMITED,"05/60864399",UNIT04 7/F BRIGHT WAY TOWER 33 MONG KOK RD KL,,Kowloon,"","999077",HK,"{}",,,{martin@kwokrui.com}
177,PANDA LOGISTICS CHICAGO INC.,0,2023-02-03 20:11:11.637,2023-02-07 01:08:08.313,PANDA LOGISTICS CHICAGO INC.,"205941680","1325 Wiley Rd. Suite 166",,Schaumburg,IL,"60173",US,"{}",,,"{carolyn@pandalogusa.com,ccarrillo@pandalogusa.com,dorothyg@pandalogusa.com,eric@pandalogusa.com,ogo-chi@pandalogusa.com}"
178,Stufurhome LLC,0,2023-02-04 01:20:02.280,2023-02-04 01:20:02.280,Stufurhome,"272785560","1742 Sabre Street",,Hayward,CA,"94545",US,"{}",,,{derrickchen@stufurhome.com}
179,UNITED FAMILY TRADING CORP,0,2023-02-07 23:17:40.624,2023-02-07 23:17:40.624,Henry Ferrera,"113354839","220 grant street",,perth amboy,NJ,"08861",US,"{}",,,{morris@henryferrera.com}
180,"Xiamen Xinlongten Import & Export Co,.Ltd",0,2023-02-08 01:46:51.877,2023-02-08 01:46:51.877,厦门欣隆腾进出口有限公司,"913502060511538083",XIAMEN CHANGJIANG BUSSINESS 270 218 ROOM,,XIAMEN,FJ,"361000",CN,"{}",,,{janis@fjxlt.com}
181,"DONGYANG XIANGYI PAPER ARTICLES CO.,LTD",0,2023-02-08 03:53:11.806,2023-02-08 03:53:11.806,"DONGYANG XINGYI PAPER ARTICLES CO.,LTD","91330783MA2DEDQ18W","5F, Building 28 , vanyang Crowd Innovation Park (xiqu) Liushi ,Dongyang ,Zhejiang,China",,JINHUA,ZJ,"322104",CN,"{}",,,{leo@ywxypp.com}
182,Odd Automotive LLC,0,2023-02-08 22:10:00.856,2023-02-08 22:10:00.856,Odd Automotive,"000000000","6541 Mt Palomar Dr",,Buena Park,CA,"90620",US,"{}",,,{d.c@oddautomotive.com}
183,TLS TRANSPORTATION INC.,0,2023-02-08 23:38:37.934,2023-02-08 23:38:37.934,TLS TRANSPORTATION INC.,"208944548","41840 McAlby Ct., Unit A",,Murrieta,CA,"92562",US,"{}",,,{alicia@tlstransportation.com}
184,RuthSpecialFoodStoreLLC,0,2023-02-09 03:22:37.133,2023-02-09 03:22:37.133,Christ in you,"453043905","95 Washington Avenue ",,Belleville ,NJ,"07109",US,"{}",,,{9144chen@gmail.com}
217,BARRY E WALTER SR COMPANY,0,2023-02-13 23:31:18.564,2023-02-13 23:31:18.564,BARRY E WALTER SR COMPANY,"841328779","2550 East Platte Ave",,Fort Morgan,CO,"80701",US,"{}",,,{nathaniel@barrywalter.com}
218,Daimax Company Limited,0,2023-02-20 06:38:08.439,2023-02-20 06:38:08.439,Daimax Company Limited,"70744959","Room 401B, 4/F, Kingsford Industrial Centre,13 Wang Hoi Road",,"Kowloon Bay, Hong Kong","","00852",HK,"{}",,,{jacky.dong@126.com}
219,QX Logistix Llc.,0,2023-02-22 22:34:56.422,2023-02-22 22:34:56.422,QX Logistix Llc.,"834481759","5685 Alcoa Ave.",,Vernon,CA,"90058",US,"{}",,,{mark@qxlogistix.com}
220,Markai Inc.,0,2023-02-22 23:32:51.816,2023-02-22 23:32:51.816,Markai,"872418742","132 Spruce Ave",,Menlo Park,CA,"94025",US,"{}",,,{chenyu@markai-brands.com}
221,Tele Marketers Inc,0,2023-02-23 19:00:18.494,2023-02-23 19:00:18.494,Creative Concepts USA,"711036739","50 Harrison Street, Suite 112",,Hoboken,NJ,"07030",US,"{}",,,{vin.advani@creativeconceptsusa.com}
222,Heycart Inc.,0,2023-02-24 23:58:10.048,2023-02-24 23:58:10.048,Heycart Inc.,"821773445","2600 Michelson Drive STE1430",,Irvine,CA,"92612",US,"{}",,,"{aiden@heycart.com.dnd,jenny@heycart.com.dnd,tony@heycart.com.dnd}"
223,AMERICA CUSTOMS BROKERAGE INC,0,2023-02-27 18:27:31.890,2023-02-27 18:27:31.890,AMERICA CUSTOMS BROKERAGE INC,"811985918","15116 Don Julian Road",,City of Industry,CA,"91746",US,"{}",,,{desihandriyani@acbchb.com}
224,"Surpass Logistics Co.,Limited",0,2023-02-28 05:48:30.978,2023-03-02 06:22:54.200,"Surpass Logistics Co.,Limited","91440300067980971Q",golden port yantian street prosperous time in Minneapolis 6 building 15c,,"Yantian District, Shenzhen",GD,"518083",CN,"{}",,,{cary@surpasscs.com}
225,"GUANGZHOU NEW YORK GROUP CO.,LTD",0,2023-02-28 10:51:12.219,2023-03-06 03:57:50.306,"GUANGZHOU NEW YORK GROUP CO.,LTD","91440101MA59F4XL92","NO.571,XICHA ROAD,GUANGZHOU,CHINA",,GUANGZHOU,GD,"510407",CN,"{}",,,{miffy@nextstepgroup.com.cn}
226,MORO FREIGHT INTERNATIONAL INC,0,2023-02-28 17:35:04.711,2023-02-28 17:35:04.711,MORO FREIGHT INTERNATIONAL INC,"833315101","1879 Lundy Ave Ste 263",,San Jose,CA,"95131",US,"{}",,,{joy@morofreight.com}
227,"Portable Storage of MN, Inc.",0,2023-02-28 17:56:58.880,2023-02-28 17:56:58.880,Big Blue Boxes,"412013791","565 1st Street SW",,New Brighton,MN,"55112",US,"{}",,,{andrew@bigblueboxes.com}
228,CREATIVE CONCEPTS MANUFACTURING LIMITED,0,2023-03-01 08:28:42.088,2023-03-01 08:28:42.088,CREATIVE CONCEPTS MANUFACTURING LIMITED,"05-58773336","F2, 3/F, Hang Fung Industrial Building Phase 2, 2G Hok Yuen Street",,"Hung Hom, Kowloon","","00000",HK,"{}",,,{rajiv.kumar@creativeconceptsmfg.net}
229,"Universal Intermodal Services, Inc.",0,2023-03-01 16:47:01.141,2023-03-01 16:47:01.141,Universal,"383063192","12755 E 9 Mile Rd",,Warren,"","48089",US,"{}",,,"{azar@goutsi.com,customeronboarding@goutsi.com}"
230,EWI INC,0,2023-03-02 19:51:56.462,2023-03-02 19:51:56.462,EWI INC,"943203060","13030 ALONDRA BLVD SUITE 102",,Cerritos,CA,"90703",US,"{}",,,{cynthia@ewiinc.com}
231,SEAMAN PAPER COMPANY OF MASSACHUSETTS INC,0,2023-03-03 20:11:50.902,2023-03-03 20:11:50.902,SEAMAN PAPER COMPANY INC,"042184201","35 WILKINS RD",,GARDNER,MA,"01440",US,"{}",,,{hollie.richard@seamanpaper.com}
232,EVANGEL SHIPPING INC,0,2023-03-03 23:08:46.414,2023-03-03 23:08:46.414,EVANGEL SHIPPING INC,"208956458","2817 E Cedar St Ste 100",,ONTARIO,CA,"91761",US,"{}",,,{acct01@evangelshipping.com}
233,JLC Boba Inc,0,2023-03-07 08:37:08.772,2023-03-07 08:37:08.772,JLC Boba Inc,"842820017","1191 Magnolia ave Suite D",,Corona ,CA,"92879",US,"{}",,,{lethuy4628@gmail.com}
234,Astus co,0,2023-03-08 19:25:34.124,2023-03-08 19:25:34.124,Astus co,"264105235","212 Geymer dr",,Mahopac,NY,"10541",US,"{}",,,{dgristin@gmail.com}
235,"Echo Global Logistics, Inc.",0,2023-03-08 20:09:24.193,2023-03-08 20:09:24.193,"Echo Global Logistics, Inc.","205001120","611 Commerce Street",,Nashville,TN,"37203",US,"{}",,,{tyler.buchanan@echo.com}
236,Global Pro Logistics Inc.,0,2023-03-13 17:32:35.842,2023-03-13 17:32:35.842,Global Pro Logistics Inc.,"454470081","3838 Carson St. #330",,Torrance,CA,"90503",US,"{}",,,{emily-lax@shipgpl.net}
237,Sherrys Supply Chain Finance and Management Inc,0,2023-03-14 20:05:05.728,2023-03-15 14:45:18.559,Sherrys Supply Chain Finance and Management Inc,"475294385","11615 US Highway 70 Suite 108B #107",,Arlington,TN,"38002",US,"{}",,,{kimberly.blakey@sherrysgroup.com}
238,CASABLANCA JOINT STOCK COMPANY,0,2023-03-15 03:06:52.375,2023-03-15 03:06:52.375,CASABLANCA JOINT STOCK COMPANY,"2400488642","NON SAO INDUSTRIAL ZONE, TAN MOI, TAN DINH, LANG GIANG DISTRICT",,BAC GIANG,"54","26600",VN,"{}",,,{bag18@mih.vn}
239,THE ANDREW BARRIE COLLECTION,0,2023-03-15 12:58:20.374,2023-03-15 12:58:20.374,POW WOW PRODUCTS,"204561329","33 SW 2ND AVE, PH1A",,MIAMI,FL,"33130",US,"{}",,,{monique@powwowproducts.us}
240,CYBER TRADING USA CORP.,0,2023-03-16 02:26:14.229,2023-03-16 02:26:14.229,CYBER TRADING USA CORP.,"205568684","2251 East 13th Street",,Brooklyn,NY,"11229",US,"{}",,,{klam985@gmail.com}
241,"Laufer Group International, Ltd.",0,2023-03-16 16:27:00.872,2023-03-16 16:27:00.872,"Laufer Group International, Ltd.","134121879","20 Vesey Street, 6th Floor",,New York,NY,"10007",US,"{}",,,{jkneafsey@laufer.com}
242,TITANIO TRAVELGOODS GROUP LLC,0,2023-03-17 14:37:44.257,2023-03-17 14:37:44.257,TITANIO TRAVELGOODS GROUP LLC,"862432460","7950 NW 53rd St., Suite 221 ",,Miami,FL,"33166",US,"{}",,,"{harry.s@titaniotech.com,ibrahim.b@titaniotech.com,jessica@titaniotech.com}"
243,TINKER PRODUCTS LLC,0,2023-03-17 16:07:40.842,2023-03-17 16:07:40.842,TINKER,"472308462","160 Alamo Plaza Unit 177",,Alamo,CA,"94507",US,"{}",,,{joe@tinkerprograms.com}
244,DF International Group Inc,0,2023-03-20 21:34:50.807,2023-03-20 21:34:50.807,DF International Group Inc,"841671880","1158 Croton Ct",,Weston,FL,"33327",US,"{}",,,{diego@dfintgroup.com}
245,Guangzhou lvzhou bag co.ltd,0,2023-03-20 22:47:51.363,2023-03-21 03:21:46.639,Guangzhou lvzhou bag co.ltd,"91440101MA59TBB884","5/F 6th Building, No23 of Zhenxing North Road, Shiling Town",,"Huadu District, Guangzhou",GD,"510850",CN,"{}",,,{davidmountain@126.com}
246,"Evo-Pak Packaging, LLC",0,2023-03-21 19:06:09.827,2023-03-27 08:17:17.883,Evo-Pak,"880592618","3440 Hwy 114 Suite 400","",Fort WOrth,TX,"76210",US,"{}","","",{sukhi@evo-pak.com}
247,JannB@trl-usa.com,0,2023-03-21 20:11:07.689,2023-03-21 20:11:07.689,JannB@trl-usa.com,,"14443 Saint Michaels Ln",,Chino,CA,"91710",US,"{}",,,{jannb@trl-usa.com}
248,melodyjxl@gmail.com,0,2023-03-22 16:07:00.690,2023-03-22 16:07:00.690,melodyjxl@gmail.com,,"3905 S. Shadycreek Dr",,Arlington,TX,"76013",US,"{}",,,{melodyjxl@gmail.com}
249,LaDove Inc,0,2023-03-24 18:10:34.180,2023-03-24 18:10:34.180,LaDove Inc,"591720146","5701 Miami Lakes Drive",,Miami Lakes,FL,"33014",US,"{}",,,{lgonzalez@ladove.com}
250,heidi@an-logistics.com,0,2023-03-28 21:09:04.368,2023-03-28 21:09:04.368,heidi@an-logistics.com,,"2618 Lookout cir",,Chino Hills,CA,"91709",US,"{}",,,{heidi@an-logistics.com}
251,Comercial Andina USA,0,2023-03-29 19:24:46.232,2023-03-29 19:24:46.232,Comercial Andina USA,"650552986","782 NW 42nd Ave SUITE 433",,Miami,FL,"33126",US,"{}",,,{comercialandinausa@gmail.com}
252,jeffkwok430@hotmail.com,0,2023-03-30 00:00:28.006,2023-03-30 00:00:28.006,jeffkwok430@hotmail.com,,"20530 trend ct",,Walnut,CA,"91789",US,"{}",,,{jeffkwok430@hotmail.com}
253,Innovative Porting SL,0,2023-03-30 10:35:25.383,2023-03-30 10:35:25.383,Logistic platform,"432879765",Carrer pirineus SN,,Celrà,NY,"17460",US,"{}",,,{dev@innporting.com}
254,"LA Prep, Inc.",0,2023-03-30 21:51:48.201,2023-03-30 21:51:48.201,"LA Prep, Inc.","954249431","2700 Signal Parkway ",,Signal Hill,CA,"90755",US,"{}",,,{charity@laprepinc.com}
255,Darby Trading Inc,0,2023-03-31 19:16:22.461,2023-03-31 19:16:22.461,Darby Trading Inc,"134151711","3000 Westchester Ave",,Purchase,NY,"10577",US,"{}",,,{rjfales@darbyinc.com}
256,D1 Imports LLC,0,2023-03-31 21:49:14.544,2023-03-31 21:49:14.544,D1 Imports LLC,"871950646","5745 W Siesta Way",,Laveen,AZ,"85339",US,"{}",,,{info@d1imports.com}
257,"Desire Fragrances, Inc.",0,2023-04-04 01:25:51.119,2023-04-04 01:25:51.119,"Desire Fragrances, Inc.","814761909","848 BRICKELL AVENUE",,MIAMI,FL,"33131",US,"{}",,,"{antonio@desirefragrances.net,elaine@desirefragrances.net}"
258,jgarcia.lax@oecgroup.com,0,2023-04-04 22:09:11.006,2023-04-04 22:09:11.006,jgarcia.lax@oecgroup.com,,"10361 GARDEN GROVE BLVD 7",,GARDEN GROVE,CA,"93843",US,"{}",,,{jgarcia.lax@oecgroup.com}
259,Nuance Energy Group Inc.,0,2023-04-05 17:09:16.601,2023-04-05 17:09:16.601,Nuance Energy,"463062317","2450 Colorado Avenue",,Santa Monica ,CA,"90404",US,"{}",,,"{brian@nuanceenergy.com,lucy.ramos@nuanceenergy.com,tom.boguess@nuanceenergy.com}"
260,Troy Acoustics Corporation,0,2023-04-06 13:10:37.913,2023-04-06 13:10:37.913,Troy Acoustics Corporation,"731694786","2580 Sidney Lanier Dr.",,Brunswick ,GA,"31525",US,"{}",,,{bill.bergiadis@troyacoustics.com}
261,"Shanghai Challenge Import & Export Trading Co.,LTD.",0,2023-04-06 23:49:29.524,2024-04-18 02:23:34.353,"Shanghai Challenge Import & Export Trading Co.,LTD.","91310110676289801W",ROOM  821 NO 2075 KONGJIANG RD,,SHANGHAI,SH,"2075",CN,"{}",,,{wanichen@vip.163.com}
262,Natus Sports & Recreation,0,2023-04-08 00:26:26.834,2023-04-08 00:26:26.834,Natus Sports & Recreation,"271021899","8672 Interstate 10 W",,Orange,TX,"77632",US,"{}",,,{jimmy@natusinc.com}
263,YANKE CORPORATION LIMITED,0,2023-04-08 02:16:47.045,2023-04-10 08:30:42.392,YANKE CORPORATION LIMITED,"62972970-000-03-23-2",RM S-V23 6/F VALIANT INDUSTRIAL CENTRE 2-12 AU PUI WAN STREET FO TAN NEW TERRITORIES,,HONG KONG,"","000000",HK,"{}",,,{julia@yankecorp.com}
264,"BAODING BODIAN LUGGAGE AND CASES BAG CO.,LTD",0,2023-04-10 00:26:35.671,2023-04-10 00:26:35.671,"BAODING BODIAN LUGGAGE AND CASES BAG CO.,LTD","911306110720675628","SOUTH OF WUFU ROAD,EAST OF XINGSHENG STREET,BAIGOU NEW CITY",,BAODING CITY,HE,"074004",CN,"{}",,,{frank@bodianbag.com}
265,"XINGAN GREATCHIP INDUSTRY CO.,LTD",0,2023-04-10 01:03:48.166,2023-04-10 07:21:23.161,"XINGAN GREATCHIP INDUSTRY CO.,LTD","91360824MA35FPQ37G","HEXI INDUSTRIAL PARK, XINGAN COUNTY",,JI'AN CITY,JX,"331300",CN,"{}",,,{fancy@vastchip.com}
266,"Zhejiang Shine Youth Luggage Co.,LTD",0,2023-04-10 08:56:48.907,2024-05-23 02:32:24.347,"Zhejiang Shine Youth Luggage Co.,LTD","91330326MA2CPC2628","No.31,Wansheng Road,Wanquan Industrial Zone,Pingyang",,Wenzhou,ZJ,"310000",CN,"{}",,,{cara@syluggage.com}
267,FONGYUAN INDUSTRIAL LIMITED,0,2023-04-11 06:19:26.017,2023-05-12 08:43:28.136,FONGYUAN INDUSTRIAL LIMITED,"70710354-000-05-19-8","FLAT/RM 205C 2/F., KWONG ON BANK MONG KOK BRANCH BUILDING  728-730 NATHAN ROAD, MONGKOK, HONG KONG",,HONG KONG,HE,"999077",CN,"{}","",,{alice@pumaleer.com}
268,"Mingkun International Logistics Co.,ltd",0,2023-04-11 07:46:42.668,2023-04-11 07:46:42.668,明钧跨境物流（广东）有限公司,"91442000MA7L7KJP7W",石岐西区彩虹大道嘉华互联网中心1709,,中山,GD,"528400",CN,"{}",,,{kevinsun@mingkungz.com}
269,Sunteck Transport Co.,0,2023-04-12 13:23:37.344,2023-04-12 13:23:37.344,Sunteck Transport Co.,"650788578","4500 Salisbury Road, Suite 305",,Jacksonville,FL,"32216",US,"{}",,,{renee.miniach@suntecktts.com}
270,dcoffman.phx@oecgroup.com,0,2023-04-12 16:37:42.834,2023-04-12 16:37:42.834,dcoffman.phx@oecgroup.com,,"8617 W GROVERS",,PEORIA,AZ,"85382",US,"{}",,,{dcoffman.phx@oecgroup.com}
271,"ZHEJIANG SKYLAND I/E CO.,LTD",0,2023-04-14 07:40:35.294,2023-04-14 07:40:35.294,"ZHEJIANG SKYLAND I/E CO.,LTD","91330402146468685T",NO.1 WAIMAO LANE CHENGDONG ROAD,,Jiaxing,ZJ,"000000",CN,"{}",,,{tom@skylandgrp.com}
272,Dingo Ventures,0,2023-04-14 17:23:36.831,2023-04-14 17:23:36.831,Dingo Ventures,"874564745","6140-A Northbelt Pkwy",,NORCROSS,GA,"30071",US,"{}",,,{dingoventuresllc@gmail.com}
273,the one shipping inc,0,2023-04-14 23:27:01.159,2023-04-14 23:27:01.159,the one shipping inc,"202030320","1640-D South Grove Ave.",,Ontario,CA,"91761",US,"{}",,,{ivan@theoneshippinginc.com}
274,"CFMT, LLC",0,2023-04-17 14:04:30.358,2023-04-17 14:04:30.358,NextSTone,"770601440","12330 E 46th Avenue #400",,Denver,CO,"80239",US,"{}",,,{marial@nextstone.com}
275,"Wall Street Systems, Inc.",0,2023-04-17 19:45:13.316,2023-04-17 19:45:13.316,"Wall Street Systems, Inc.","341118372",PO Box 847,,MANTUA,OH,"44255",US,"{}",,,{credit@wallstreetsystemsinc.com}
276,Prime Footwear Group INC,0,2023-04-18 15:08:52.316,2023-04-18 15:08:52.316,Prime Footwear Group INC,"474281025","1222 Ave M suite 301",,Brooklyn ,NY,"11230",US,"{}",,,{david@primefootweargroup.com}
277,GLOBAL INNOVATIONS NETWORK,0,2023-04-19 21:32:21.332,2023-04-19 21:32:21.332,GLOBAL INNOVATIONS NETWORK,"272435421","18305 BISCAYNE BLVD, #210",,AVENTURA,FL,"33160",US,"{}",,,{michaelbenlolo@ginfl.com}
279,mmoss.den@oecgroup.com,0,2023-04-21 15:16:46.856,2023-12-01 07:08:07.827,mmoss.den@oecgroup.com,"","4994 S CATAWBA ST","",AURORA,CO,"80016",US,"{}","","","{cologolfgirl@gmail.com,mmoss.den@oecgroup.com}"
280,Zhongshanshi Heyi Xinxi Fuwu Youxiangongsi,0,2023-04-22 03:38:40.188,2023-04-22 03:38:40.188,Zhongshanshi Heyi Xinxi Fuwu Youxiangongsi,"91442000325071345N","No. 7 Qiancheng Road Room 206, second floor, the 1-5th building",,ZHONGSHAN,GD,"528434",CN,"{}",,,{getmorefun_gmf@outlook.com}
281,Creative Powder Worx Inc,0,2023-04-24 13:02:13.120,2023-04-24 13:02:13.120,Creative Powder Worx Inc,"851819738","20651 ne hwy 27",,williston,FL,"32696",US,"{}",,,{creativepowderworx@gmail.com}
282,Bboushey.sfo@oecgroup.com,0,2023-04-24 14:23:44.098,2023-04-24 14:23:44.098,Bboushey.sfo@oecgroup.com,,"5644 Belleza Drive",,Pleasanton,CA,"94588",US,"{}",,,{bboushey.sfo@oecgroup.com}
283,"Wenzhou Nicewear Trade Co., Ltd",0,2023-04-26 07:23:23.549,2023-04-26 07:31:46.247,"Wenzhou Nicewear Trade Co., Ltd","9133032759438969XP","No. 10-16, Shangjiang Distric, Lingxi Town, Cangnan County",,Wenzhou,ZJ,"325800",CN,"{}",,,{13868581010@139.com}
284,"PUTIAN  NEWPOWER  ARTS & CRAFTS  CO.,LTD.",0,2023-04-28 01:55:12.561,2023-04-28 06:51:55.842,"PUTIAN  NEWPOWER  ARTS & CRAFTS  CO.,LTD.","913503027917738854","NO.405 HONGFENG BLDG.,XUEYUAN SOUTH RD.,CHENGXIANG DISTRICT PUTIAN CITY FUJIAN,P.R.C.",,PUTIAN,FJ,"351100",CN,"{}",,,{bobnewpower@163.com}
285,"HENG ERMEI LIGHTING CO.,LTD",0,2023-04-28 08:42:37.934,2023-04-28 08:42:37.934,"HENG ERMEI LIGHTING CO.,LTD","883372551","8060 W 9TH AVE APT 219",,LAKEWOOD,CO,"80214 ",US,"{}",,,{freightgd@gmail.com}
286,BOB.WILSON@PCGGLOBALTRADE.COM,0,2023-05-02 15:34:25.375,2023-05-02 15:34:25.375,BOB.WILSON@PCGGLOBALTRADE.COM,,"6065 EWING BLVD",,ARLINGTON,TN,"38002",US,"{}",,,{bob.wilson@pcgglobaltrade.com}
287,"TeaZa Energy, LLC",0,2023-05-03 15:54:05.330,2023-05-03 15:54:05.330,"TeaZa Energy, LLC","462635049","2744 Summerdale Drive",,Clearwater,FL,"33761",US,"{}",,,{jsuto@trimnutrition.com}
288,deng.iah@oecgroup.com,0,2023-05-04 21:26:19.063,2023-05-04 21:26:19.063,deng.iah@oecgroup.com,,"9913 WESTVIEW DR.",,Houston,TX,"77055",US,"{}",,,{deng.iah@oecgroup.com}
289,SUZHOU XINGCHENG EMULSION PRODUCTS CO;LTD,0,2023-05-05 04:14:54.741,2023-05-06 00:23:11.358,SUZHOU XINGCHENG EMULSION PRODUCTS CO;LTD,"91320505608207958G",NO 236 HUA JIN ROAD TONG AN NEW DISTRICTS,,SUZHOU,JS,"215153",CN,"{}",,,{ryan@suzhouballoon.com}
290,DACHSER USA,0,2023-05-08 11:49:26.417,2023-05-08 11:49:26.417,DACHSER AIR & SEA LOGISTICS,"132793095","5220 Pacific Concourse Dr",,LOS ANGELES,CA,"90045",US,"{}",,,{nilsa.wilton@dachser.com}
291,Stron USA  Inc,0,2023-05-15 20:48:53.651,2023-05-15 20:48:53.651,Stron USA  Inc,"822969824","38 W Sierra Madre Blvd Suite 3",,Sierra Madre,CA,"91024",US,"{}",,,{accounting@stronusa.com}
292,CELENIT S.P.A.,0,2023-05-17 09:24:05.286,2023-05-17 09:45:57.004,CELENIT S.P.A.,IT00211210281,VIA BELLINGHIERA 17 35019 ONARA DI TOMBOLO PADOVA ITALY,,PADOVA,"34","35019",IT,"{}","",,{dgastaldello@celenit.com}
293,ENGINE COMPONENTS OF USA,0,2023-05-17 19:11:52.401,2023-05-17 19:11:52.401,CALIFORNIA TRUCK PARTS,"260711227","10030 MARCONI DR STE F",,SAN DIEGO,CA,"92154",US,"{}",,,{administration@californiatruckparts.net}
294,Bohme LLC,0,2023-05-19 18:53:16.807,2023-05-19 18:53:16.807,Bohme,"462279755","12094 S Life Science CT, 100",,Draper,UT,"84020",US,"{}",,,{frederic@bohme.com}
295,"PCG PACKAGING, LLC",0,2023-05-23 15:37:13.943,2023-05-23 15:37:13.943,PCG GLOBAL TRADE,"455528232","6055 AIRLINE ROAD",,ARLINGTON,TN,"38002",US,"{}",,,{bob.wilson@pcgpackaging.com}
296,TOPASIA INTERNATIONAL LOGISTICS U.S. CO. LTD.,0,2023-05-24 22:21:04.428,2023-05-24 22:21:04.428,TOPASIA INTERNATIONAL LOGISTICS U.S. CO. LTD.,"612012179","1000 lakes ave #415",,west covina,CA,"91790",US,"{}",,,{kaye@topasia.us}
297,"LOA Int'l (USA) Transport Co., Inc.",0,2023-05-24 22:51:40.132,2023-05-24 22:51:40.132,"LOA Int'l (USA) Transport Co., Inc.","954621161","360 Parriott Place West",,City of Industry,CA,"91745",US,"{}",,,{danny@loaintl.com}
298,TOPASIA INTERNATIONAL LOGISTIC,0,2023-05-30 16:58:01.554,2023-05-30 16:58:01.554,account-lax@topasia.club,,"1000 LAKES DR SUITE 415",,WEST COVINA,CA,"91790",US,"{}",,,{account-lax@topasia.club}
299,"Interlog USA, Inc.",0,2023-05-31 00:33:45.417,2023-05-31 00:33:45.417,"Interlog USA, Inc","411805632","9380 Central Ave NE, Suite 350",,Blaine,MN,"55434",US,"{}",,,{chelsey@commerceexpressinc.com}
300,Great Western Transportation,0,2023-05-31 22:09:38.716,2023-05-31 22:09:38.716,Great Western Transportation,"680397660",PO BOX 1119,,Pleasanton,CA,"94566",US,"{}",,,{matt@gwtrans.com}
301,"Zhangjiagang Chenyue Cosmetic packaging CO.,LTD",0,2023-06-05 13:51:35.769,2023-06-05 13:51:35.769,"Zhangjiagang Chenyue Cosmetic packaging CO.,LTD","91320582MA1W93U9XU","QINGFENG VILLAGE, ZHAOFENG TOWN",,ZHANGJIAGANG CITY,JS,"215600",CN,"{}",,,{chinabottle@aliyun.com}
302,"TRANSCON SHIPPING CO., INC.",0,2023-06-05 19:43:52.012,2023-06-05 19:43:52.012,"TRANSCON SHIPPING CO., INC.","223699453","525 S. DOUGLAS STREET, SUITE 280",,EL SEGUNDO,CA,"90245",US,"{}",,,{ellent@transconshipping.com}
303,Panda Logistics Chicago Inc,0,2023-06-09 16:41:50.572,2023-06-09 16:41:50.572,ap@pandalogusa.com,,"1325 Wiley Rd. suite 166",,Schaumburg,IL,"60173",US,"{}",,,{ap@pandalogusa.com}
304,whitehat,0,2023-06-15 13:02:50.559,2023-06-15 13:02:50.559,whitehat,"463637324",dsgg,,newyork,CA,"10001",US,"{}",,,{saitamagenos00114@gmail.com}
305,SPANGLER CANDY COMPANY,0,2023-06-16 13:07:05.660,2023-06-16 13:07:05.660,Spangler Candy Fulfillment,"344360680","400 N. PORTLAND",,BRYAN,OH,"43506-1602",US,"{}",,,{amy.lavoie@spanglercandy.com}
306,"Albanese Confectionery Group, Inc.",0,2023-06-16 18:46:39.211,2023-06-21 16:26:24.077,Albanese Confectionery,"351861174","5441 E Lincoln Hwy",,Merriville,IN,"46410",US,"{}",,,{laurak@albaneseconfectionery.com}
307,Security Researcher,0,2023-06-19 21:20:26.936,2023-06-19 21:20:26.936,Security Researcher,"629441699X",dfsdsfssasa,,dasasdas,,"10001",TW,"{}",,,{m.arsalan.kabeer@gmail.com}
308,Overseas Food Trading Ltd,0,2023-06-20 13:25:46.579,2023-06-20 13:25:46.579,Overseas Food Trading Ltd,"133388568","2200 Fletcher Avenue Suite 702",,Fort Lee,NJ,"07024",US,"{}",,,{jose.mejia@overseasusa.com}
309,"XIAMEN YOULIKE HOUSEWARE CO.,LTD",0,2023-06-21 02:36:12.376,2023-06-21 02:36:12.376,"XIAMEN YOULIKE HOUSEWARE CO.,LTD","91350205M0001W8W6K","Room 511,No.1, No.39,  Xinchang Road, Haicang District, Xiamen, Fujian China 361026",,Xiamen,FJ,"361026",CN,"{}",,,{sales10@xmyoulike.com}
310,whitehat2,0,2023-06-21 10:37:26.067,2023-06-21 10:37:26.067,whitehat2,"436745744",gdfh,,fgjd,CA,"10001",US,"{}",,,{saitamagenos00116@gmail.com}
311,"Voyage-Marche,Inc.",0,2023-06-21 20:20:12.839,2023-06-21 22:42:12.256,"Voyage-Marche,Inc.","471716883","200 Crandon Blvd SUITE 206",,KEY BISCAYNE,FL,"33149",US,"{}",,,{avargas@voyage-marche.com}
312,ENERGY COMERCIO INTERNACIONAL LTDA,0,2023-06-22 14:06:03.927,2023-06-23 11:40:15.751,ENERGY COMERCIO INTERNACIONAL LTDA,"10.599.347/0001-56","AVENIDA IBIRAPUERA ,2144 - 8 ANDAR INDIANOPOLIS",,São Paulo,SP,"04028-001",BR,"{}",,,{cyro.flores@energy.com.br}
313,"Guangzhou BAO SHA Leather Co., Ltd.",0,2023-06-27 07:13:44.824,2023-07-07 09:23:05.096,"Guangzhou BAO SHA Leather Co., Ltd.","91440101304450107R","NO.778,NORTH RING ROAD,EUROPEAN  INDUSTRIAL PARK,SHILING TOWN, HUADU DISTRICT, GUANGZHOU CITY,GUANGDONG PROVINCE, CHINA",,guangzhou,GD,"510850",CN,"{}",,,{13697464326@126.com}
314,"Justified Logistic Solutions, Inc.",0,2023-06-29 18:35:27.074,2023-06-29 18:35:27.074,"Justified Logistic Solutions, Inc.","473683287","2212 S Vista Ave",,Bloomington,CA,"92316",US,"{}",,,{info@justifiedlogistics.com}
315,"Heritage Baby Products, LLC",0,2023-07-02 22:50:22.554,2023-07-02 22:50:22.554,Heritage Baby Products,"472464185","91 New England Ave",,PISCATAWAY,NJ,"08854",US,"{}",,,"{chinni@sterlingicapital.com,dmusto@heritagebp.com,shelby@heritagebp.com}"
316,CAVS USA Inc,0,2023-07-06 23:48:04.443,2023-07-06 23:48:04.443,CAVS USA Inc,"954570186","8616 Phoenix Drive",,Manassas,VA,"20110",US,"{}",,,{cavs@cavsusa.com}
317,W ACCESSORIES LTD,0,2023-07-10 06:17:54.087,2023-07-10 06:17:54.087,W ACCESSORIES LTD,"823002421","147 W35TH STREET 1108",,NEW YROK,NY,"10001",US,"{}",,,{weilin@waccessoriesnyc.com}
318,Vismay International Corporation,0,2023-07-10 07:02:24.757,2023-07-10 07:02:24.757,Vismay International Corporation,"1288688569","RM401, 73, Migeumil-ro, Bundang-gu,",,Seongnam-si,"41","13632",KR,"{}",,,{hhlee007@gmail.com}
319,SUSAN MOORE,0,2023-07-10 16:22:43.907,2023-07-10 16:22:43.907,SUSAN MOORE,"932265915","17251 NW 26TH CT",,TRENTON,FL,"32693",US,"{}",,,{ledoux100a@gmail.com}
320,"Too Good Gourmet, Inc.",0,2023-07-10 18:19:32.501,2023-07-10 18:19:32.501,"Too Good Gourmet, Inc.","943297875","2380 Grant Avenue",,San Lorenzo,CA,"94580",US,"{}",,,{accounting@toogoodgourmet.com}
321,Gallery Lighting Inc,0,2023-07-10 22:53:38.380,2023-07-10 22:53:38.380,Light Gallery Plus,"330904724","1465 Encinitas Boulevard",,Encinitas,CA,"92024",US,"{}",,,{lgpinvoice@gmail.com}
322,ENSTROM CANDIES INC,0,2023-07-11 14:24:51.173,2023-07-11 14:24:51.173,ENSTROM CANDIES INC,"840630661","701 COLORADO AVE",,GRAND JUNCTION,CO,"81501",US,"{}",,,{marie@enstrom.com}
323,"Creative Arcades, LLC",0,2023-07-11 21:11:10.519,2023-07-11 21:11:10.519,"Creative Arcades, LLC","844218570","27472 Portola Parkway, Ste 151",,FOOTHILL RANCH,CA,"92610",US,"{}",,,{brianh@creative-arcades.com}
324,Kole Imports,0,2023-07-13 19:33:15.881,2023-07-13 19:33:15.881,Kole Imports & Closeouts,"330097649","24600 Main Street",,Carson,CA,"90745",US,"{}",,,{emanuel@koleimports.com}
325,"C.H. Robinson International, Inc.",0,2023-07-14 05:12:21.436,2023-07-14 05:12:21.436,"C.H. Robinson International, Inc.","410680048","14701 Charlson Road Eden Prairie, Minnesota",,Eden Prairie,MN,"55347",US,"{}",,,{joyce.wang+chrobinson@bluextrade.com}
326,CAN-SAIL INTERNATIONAL LOGISTICS LIMITED,0,2023-07-14 08:46:33.085,2023-07-14 08:46:33.085,"70595273-000-04-23-8","70595273-000","UNIT 805 8/F BLK A PO LUNG CTR 11 WANG CHIU ROAD, KOWLOON BAY",,HONG KONG,"","00000",HK,"{}",,,{accounting@cansail-log.com}
327,Tirso Lighting Inc,0,2023-07-18 20:16:51.714,2023-07-18 20:16:51.714,Tirso Lighting Inc,"270357367","86 Main St #230",,Yonkers ,NY,"10701",US,"{}",,,{tp@tirsolighting.com}
328,CAN-SAIL INTERNATIONAL LOGISTICS CORPORATION,0,2023-07-19 04:12:04.436,2023-07-19 04:12:04.436,checking@cansail-log.com,,"6416 E WASHINGTON BLVD",,COMMERCE,CA,"90040",US,"{}",,,{checking@cansail-log.com}
329,"Applied Products, Inc",0,2023-07-19 13:35:26.928,2023-07-20 23:29:42.786,Heigl Adhesive Sales,"202257905","6455 City West Parkway. Suite 200",,EDINA,MN,"55344",US,"{}",,,{robin@heigltech.com}
330,Dedola Global Logistics,0,2023-07-19 21:50:50.228,2023-07-19 21:50:50.228,Dedola Global Logistics,"330469706","3822 Katella Ave",,Los Alamitos,CA,"90720",US,"{}",,,"{ria@dedola.com,salud@dedola.com}"
331,"FOODMatch, Inc",0,2023-07-21 19:52:28.271,2023-07-21 19:52:28.271,"FOODMatch, Inc","133875883","575 8th avenue, 23rd FL",,"New York, NY",NY,"10018",US,"{}",,,{adrian@foodmatch.com}
332,"Byson International Co., Ltd.",0,2023-07-24 07:34:12.242,2023-07-24 07:34:12.242,"Byson International Co., Ltd.","13042593","39 Jung-Shianh Rd",,Homei Changhua,"","50855",TW,"{}",,,"{joyce@byson.com.tw,steven@danvillesales.com}"
333,"Taiwan Kingbird Enterprises, Inc.",0,2023-07-25 01:06:09.065,2023-07-25 01:06:09.065,"Taiwan Kingbird Enterprises, Inc.","59196156","No. 65, Chang Tsao Road",,Changhua,"","50067",TW,"{}",,,{tkngbird@kingbird.com.tw}
334,"Chuan Wei Metal Co., Ltd.",0,2023-07-26 10:59:24.783,2023-07-26 10:59:24.783,"Chuan Wei Metal Co., Ltd.","23951699","NO. 235, LN 498, SEC.3 LUHE RD.",,CHANGHUA,"","50565",TW,"{}",,,{sophie@mail.cw-metal.com.tw}
335,Genius Games LLC,0,2023-07-26 16:38:00.857,2023-07-26 16:38:00.857,Genius Games LLC,"811757195","1901 Shiloh Oaks Dr. ",,Wildwood,MO,"63005",US,"{}",,,{john@geniusgames.org}
336,Russell Stover Chocolates LLC,0,2023-08-01 15:32:28.163,2023-08-01 15:32:28.163,Russell Stover Chocolates LLC,"431243415","4900 Oak Street",,Kansas City,MO,"64112",US,"{}",,,{rai-shawn.moorehead@rstover.com}
337,"SHANDONG PRIME UNISON WOODEN CO., LTD",0,2023-08-03 06:54:26.139,2023-08-03 07:42:14.662,"SHANDONG PRIME UNISON WOODEN CO., LTD","91370782MA3CCABC4J","NO. 123 SHANGMAO STREET, LINJIACUN TOWN, ZHUCHENG, SHANDONG, CHINA",,WEIFANG,SD,"262232",CN,"{}",,,{changrong1008@126.com}
338,"VINH SON WOOD CO.,LTD",0,2023-08-03 08:57:57.655,2023-08-03 08:57:57.655,"VINH SON WOOD CO.,LTD","3702067522","No.35, D12 Street, Tan Binh Ward",,Di An,"57","72000",VN,"{}",,,{loan@vsw.vn}
339,City Ocean International Inc,0,2023-08-03 18:55:50.734,2023-08-03 18:55:50.734,City Ocean International Inc,"481279380","90 woodbridge center drive suite 370",,Woodbridge,NJ,"07095",US,"{}",,,{jen@cityocean.net}
340,"JDY INTERNATIONAL, INC",0,2023-08-04 20:42:10.686,2023-08-04 20:42:10.686,"JDY INTERNATIONAL, INC","474723877","2707 E Valley Blvd., STE 310",,"West Covina,",CA,"91792",US,"{}",,,{mandy@jdyintl.com}
341,BlueX Service Quality,0,2023-08-07 08:07:18.476,2023-08-07 08:07:18.476,service.quality+referral@bluextrade.com,,"20955 Pathfinder Rd., Suite 230",,Diamond Bar,CA,"91765",US,"{}",,,{service.quality+referral@bluextrade.com}
342,Federal Express,0,2023-08-11 21:05:30.372,2023-08-11 21:05:30.372,Fedex,"003141970","942 S Shady Grove Rd,",,Memphis,TN,"38120",US,"{}",,,{jerry.cheng+fedex@bluextrade.com}
343,"ZIGI USA, LLC",0,2023-08-14 14:53:47.280,2023-08-14 14:53:47.280,"ZIGI USA, LLC","263340851","14205 NE 18th Avenue",,North Miami,FL,"33181",US,"{}",,,"{mbernard@zigiusa.com,mrincon@zigiusa.com}"
344,"Toplift North America, Inc",0,2023-08-14 17:57:15.675,2023-08-14 17:57:15.675,TNA,"475023427","280 W 63rd St",,Westmont,IL,"60559",US,"{}",,,{rscheuer@toplift.com}
345,"Eaglerise E&E (USA), Inc.",0,2023-08-14 18:57:33.161,2023-08-14 18:57:33.161,"Eaglerise E&E (USA), Inc.","271689607","13405 Benson Ave.",,Chino,CA,"91710",US,"{}",,,{lucy@useaglerise.com}
346,Vermont Maple Sugar Company Inc.,0,2023-08-15 18:32:19.956,2023-08-15 18:32:19.956,Butternut Mountain Farm,"030281387","37 Industrial Park Drive",,Morrisville,VT,"05661",US,"{}",,,{tiffanyp@butternutmountainfarm.com}
347,Transmodal Corporation,0,2023-08-18 17:09:46.771,2023-08-18 17:09:46.771,Transmodal,"042875419","545 Island Road",,Ramsey,NJ,"07446-0000",US,"{}",,,{max.kantzer@transmodal.net}
348,"BEST FURNITURE INTERNATIONAL CO., LTD.",0,2023-08-25 03:13:07.153,2023-11-06 03:44:23.976,"BEST FURNITURE INTERNATIONAL CO., LTD.","2152555","8F-1, NO.21, LANE724, GUANG DONG RD.,",,Pingtung,"","90067",AI,"{}","",,{bestfurn@ms67.hinet.net}
349,Cake Craft Factory LLC,0,2023-08-29 15:35:28.982,2023-08-29 15:35:28.982,Cake Craft Factory LLC,"371857825","2001 Platinum Street",,Garland,TX,"75042",US,"{}",,,{blanca@cakecraftusa.com}
350,"United Olive Oil Import, Corp.",0,2023-08-29 17:31:43.446,2023-08-29 17:31:43.446,"United Olive Oil Import, Corp.","900188155","82 Beaver St – Suite 301",,NEW YORK,NY,"10005",US,"{}",,,"{accounting@unitedoliveoil.com,madina@unitedoliveoil.com}"
351,Alluring Self,0,2023-08-30 14:11:11.040,2023-08-30 14:11:11.040,Navis X,"372074823","20 Stafford Ln",,Stony Brook,NY,"11790",US,"{}",,,{edward.sung@alluringself-us.com}
352,janicehyemok@gmail.com,0,2023-09-01 21:50:12.599,2023-09-01 21:50:12.599,janicehyemok@gmail.com,,"548 calle estrella",,montebello,CA,"90640",US,"{}",,,{janicehyemok@gmail.com}
353,EAST WEST CONTAINER LINE INC,0,2023-09-08 22:24:48.545,2023-09-08 22:24:48.545,EAST WEST CONTAINER LINE INC,"822543606","14778 PIPELINE AVE STE B CHINO HILLS, CA, 91709, UNITED STATES",,CHINO HILLS,CA,"91709",US,"{}",,,{samantha@ewcl.us}
354,SIRI LOGISTICS COMPANY LIMITED,0,2023-09-12 02:29:29.683,2023-09-12 02:29:29.683,SIRI LOGISTICS COMPANY LIMITED,"0108403491","40th Floor, Building C5 D'.CAPITALE No. 119 Tran Duy Hung Street, Trung Hoa Ward, Cau Giay District, Hanoi City, Vietnam",,Hanoi,HN,"100000",VN,"{}",,,{hd.thang89@gmail.com}
355,Partners A Tasteful Choice Co,0,2023-09-14 19:27:37.905,2023-09-14 19:27:37.905,Partners A Tasteful Choice Co,"911601772","2361 S 211th St",,Des Moines,WA,"98198",US,"{}",,,{ar@partnerscrackers.com}
356,Great World Customs Service Inc,0,2023-09-18 22:59:24.292,2023-09-18 22:59:24.292,accounting@great-world.com,,"518 Eccles Ave",,South San Francisco,CA,"94080",US,"{}",,,{accounting@great-world.com}
357,"Vita Property Services, LLC",0,2023-09-20 17:12:17.780,2023-09-20 17:12:17.780,"Vita Property Services, LLC","831809792","18291 N. Pima Road Suite 110-299",,Scottsdale,AZ,"85255",US,"{}",,,{rab@vitapropertyservices.com}
358,"GUANGZHOU FASHION HOUSE ENTERPRISE SERVICES CO., LTD",0,2023-09-21 03:44:02.199,2023-09-21 04:02:40.265,"91440101MA9UL85683","91440101MA9UL85683","Room 306, Building 2, No.6, Sunshine Road, Shiling Town, Huadu District",,Guangzhou,GD,"510800",CN,"{}",,,{776758649@qq.com}
359,Great World Customs Service Inc.,0,2023-09-21 17:20:35.880,2023-09-21 17:20:35.880,Great World Customs Service Inc.,"943039932","518 Eccles Ave",,South San Francisco,CA,"94080",US,"{}",,,{jimmy@great-world.com}
360,"Tom Clark Confections, Inc.",0,2023-09-26 22:48:49.329,2023-09-26 22:48:49.329,"Tom Clark Confections, Inc.","953763067","1193 Nicole Court",,Glendora,CA,"91740",US,"{}",,,{timclark@tomclarkconfections.com}
361,"World Tech Toys, Inc.",0,2023-09-26 23:13:48.619,2023-09-26 23:13:48.619,World Tech Toys,"262140314","28777 Witherspoon Pkwy",,VALENCIA,CA,"91355",US,"{}",,,"{kulical@hotmail.com,sophie@worldtechtoys.com}"
362,DPI SPECIALTY FOODS INC,0,2023-09-27 16:47:21.834,2023-09-28 23:26:25.190,DPI SPECIALTY FOODS INC,"363699393","601 S. ROCKEFELLER AVE",,ONTARIO,CA,"91761",US,"{}",,,{corey.wells@dpispecialtyfoods.com}
363,ROYMODERN LLC,0,2023-09-27 16:53:56.714,2023-09-27 16:53:56.714,LLC,"923642959","3726 SHADOW CREST LN",,ROSENBERG,TX,"77469",US,"{}",,,{omerture54@gmail.com}
364,International Delicacies,0,2023-09-27 18:35:28.080,2023-09-27 18:35:28.080,Kitchen and Love LLC,"942898668","2100-F Atlas Road",,Richmond,CA,"94806",US,"{}",,,{amanda.lee@intldelicacies.com}
365,"Conifer Specialties, Inc",0,2023-09-27 20:56:48.126,2023-09-27 20:56:48.126,"Conifer Specialties, Inc","910985930","15500 Woodinville-Redmond RD NE C-400",,Woodinville,WA,"98072",US,"{}",,,"{ar_conifer@conifer-inc.com,rwatson@conifer-inc.com}"
366,Illuminated Trees Inc,0,2023-09-28 18:48:24.995,2023-09-28 18:48:24.995,Illuminated Trees,"852742590","9814 Variel Ave",,Chatsworth,CA,"91311",US,"{}",,,{silvia@illuminatedtrees.com}
367,KathrynGrimes18@gmail.com,0,2023-09-29 19:03:34.479,2023-09-29 19:03:34.479,KathrynGrimes18@gmail.com,,"3821 Ranchman Blvd",,Denton,Texas,"76210",US,"{}",,,{kathryngrimes18@gmail.com}
368,Bizwakadak Enterprises LLC,0,2023-10-02 03:59:49.043,2023-10-02 03:59:49.043,Advanced Manufacturing & Distribution,"931350103","1620 Raiders Way #125",,Henderson,NV,"89052",US,"{}",,,{ethan@advmfgdist.com}
369,"LEXINGTON HOMES, LLC",0,2023-10-08 01:48:28.145,2023-10-08 01:48:28.145,LEXINGTON HOMES,"611317468","293 Old Kingston Rd",,Lexington,KY,"40505",US,"{}",,,{brooke.bulkeley@gmail.com}
370,iP+ Yokosuka Corporation,0,2023-10-09 23:01:09.771,2023-10-09 23:01:09.771,iP+,"851868255","700 N Stanton Ste 200",,El Paso,TX,"79902",US,"{}",,,{francisco.moctezuma@industrialpanasonic.com}
371,"Shenzhen Sunpower Int'l Logistics Co., LTD",0,2023-10-12 20:12:11.403,2023-10-12 20:12:11.403,"Shenzhen Sunpower Int'l Logistics Co., LTD","9144030066851439Q",羅湖區南湖街道和平社區嘉賓路 4018號 爵士大廈20B06-07,,深圳市,GD,"518001",CN,"{}",,,{paul@sunpowerlog.com}
372,"DUC LOI CO.,LTD",0,2023-10-13 08:07:15.925,2023-10-13 08:07:15.925,"DUC LOI CO.,LTD","3700492673","9B/11, Noi Hoa 2 Town, Binh An Ward, Di An Village, Binh Duong Province, VIETNAM",,Di An,"57","820000",VN,"{}",,,{nhu.duong@ducloifurniture.com}
373,"Palm Beach Beaute, LLC",0,2023-10-13 18:53:03.984,2023-10-13 18:53:03.984,"Palm Beach Beaute, LLC","320273829","124 North Swinton Ave",,Delray Beach,FL,"33444",US,"{}",,,{psmith@gabinc.net}
374,Customs Services & Solutions Inc,0,2023-10-16 22:09:39.827,2023-10-16 22:09:39.827,Customs Services & Solutions Inc,"450528013",P O Box 160,,DOUGLASVILLE,GA,"30133",US,"{}",,,{cherry.fodor@cssbrokers.com}
375,"Vikram Solar US, Inc.",0,2023-10-17 17:18:57.252,2023-10-17 17:18:57.252,"Vikram Solar US, Inc.","474567287","33 Lyman St, Ste 102",,Westborough,MA,"01581",US,"{}",,,{kimberly.monnar@vikramsolar.com}
376,RNV PACKAGING INC,0,2023-10-18 03:02:20.934,2023-10-18 03:02:20.934,RNV PACKAGING INC,"874268915","13570 via san remo ",,chino hills,CA,"91709",US,"{}",,,{eva@rnvpackaging.com}
377,FSW Carga LLC,0,2023-10-22 17:03:48.816,2023-10-22 17:03:48.816,FSW Carga,"471571191","10411 NW 28 ST Unit 104-C",,Miami,FL,"33172",US,"{}",,,{miami@fswcarga.com}
378,MUCHCRAFTCOMPANYLIMITED,0,2023-10-24 06:25:00.642,2023-10-24 06:25:00.642,MUCHCRAFTCOMPANYLIMITED,"91330782MA2E78QU45",浙江省金华市义乌市东河北街38号2楼,,义乌,ZJ,"322000",CN,"{}",,,{jack@muchcraft.com}
379,"MUCH CRAFT CO.,LIMITED",0,2023-10-24 07:19:56.858,2024-04-16 08:47:29.339,"MUCH CRAFT CO.,LIMITED","2810391",FLAT/RM B 5/F GAYLORD COMMERCIAL BUILDING 114-118 LOCKHART ROAD HK,,Hong Kong,"","999077",HK,"{}",,,{info@muchcraft.com}
380,Cargo Link LOGISTICS LLC,0,2023-10-24 22:47:41.822,2023-10-24 23:10:45.166,Cargo Link LOGISTICS LLC,"922787416","8811 Garvey ave  suite 206",,ROSEMEAD,CA,"91770",US,"{}",,,{imports@cargolinklogistics.net}
381,"Cowan Logistics, LLC",0,2023-11-01 23:25:11.393,2023-11-28 01:48:22.607,"Cowan Logistics, LLC","562537962","4555 Hollins Ferry Road",,Baltimore,MD,"21227",US,"{}",,,{khurdle@cowanlogistics.com}
382,"1PerfectChoice",0,2023-11-01 23:25:32.873,2023-11-01 23:25:32.873,"1PerfectChoice","464700454","21908 Valley Blvd",,Walnut,CA,"91789",US,"{}",,,{kek@1perfectchoice.com}
383,Suntisfy Inc,0,2023-11-03 00:41:56.876,2023-11-03 00:41:56.876,Suntisfy Inc,"474690925","3 corporate park, suite 160",,Irvine,CA,"92606",US,"{}",,,{enyazhou@suntisfy.com}
384,"FireKing Household Appliances Co., Ltd.",0,2023-11-03 01:37:33.449,2023-11-03 03:03:15.273,"FireKing Household Appliances Co., Ltd.","2223432","Unit 1405B 14/F, The Belgian Bank Building, Nos 721-725 Nathan Road, Mongkok",,Kowloon,"","999077",HK,"{}",,,{sales2@fireking.com.cn}
385,"JK FREIGHT LOGISTICS, INC.",0,2023-11-06 23:25:38.863,2023-11-06 23:25:38.863,"JK FREIGHT LOGISTICS, INC.","474018076","13471 1/2 PUMICE ST.",,NORWALK,CA,"90650",US,"{}",,,"{joonkim@jk-freight.com,lax@jk-freight.com}"
386,"Brad Barry Company, LTD",0,2023-11-07 00:11:12.446,2023-11-07 00:11:12.446,"Brad Barry Company, LTD","952940976","14020 Central Ave., Ste 580",,CHINO,CA,"91710",US,"{}",,,{tina@bradbarry.com}
387,Translink Shipping Inc.,0,2023-11-07 19:25:06.549,2023-11-07 19:25:06.549,Translink Shipping Inc.,"911394671","15020 Bothell Way NE Suite 100",,Seattle,WA,"98155",US,"{}",,,{jason_lax@translinkshipping.com}
388,Oneport Global Logistics LLC,0,2023-11-07 19:38:35.776,2023-11-07 19:38:35.776,Oneport Global Logistics LLC,"920747420","1 Meadowlands Plaza, SUITE  200",,EAST RUTHERFORD,NJ,"07073",US,"{}",,,{raj.ilyas@oneportlogistics.com}
389,"Guangdong Weili Intelligent Development Co., Ltd.",0,2023-11-08 06:58:28.525,2023-11-08 06:58:28.525,"Guangdong Weili Intelligent Development Co., Ltd.","914405155797238219","D ZONE, XIEHE INDUSTRIAL PARK Laimei Road Chenghai Shantou Guangdong 515899",,Shantou,GD,"515899",CN,"{}",,,{enyazhou1995@gmail.com}
390,Multi-panels inc,0,2023-11-13 17:37:44.552,2023-11-13 17:37:44.552,Multi-panels inc,"842281273","1631 Washington st",,Holliston,MA,"01746-2220",US,"{}",,,{birgitte@multi-panels.com}
391,"XIAMEN LAHOO AUTO PARTS CO.,LTD",0,2023-11-16 01:24:02.537,2023-11-16 02:22:55.068,"XIAMEN LAHOO AUTO PARTS CO.,LTD","91350206089932460F","Unit 503B,  Building 1,  No.428 Gaoqibei Road, Huli District,Xiamen city, China",,"Xiamen city, China",FJ,"361011",CN,"{}",,,{sales2@lahooautoparts.com}
392,SCANWELL LOGISTICS (LAX) INC,0,2023-11-17 17:47:30.423,2023-11-17 17:47:30.423,SCANWELL LOGISTICS (LAX) INC,"200823918","108 W WALNUT STREET, SUITE 223",,GARDENA,CA,"90248",US,"{}",,,{lorettachow@scanwell.com}
393,"SHANDONG YIZHONGYUAN HOME FURNISHING CO.,LTD",0,2023-11-20 03:46:34.727,2023-11-20 03:46:34.727,"SHANDONG YIZHONGYUAN HOME FURNISHING CO.,LTD","91370782MA3UPLND6C","123 SHANGMAO NORTH STREET LINJIA VILLAGE",,ZHUCHENG,SD,"262232",CN,"{}",,,{18669785106@163.com}
394,BlueBerryBook,0,2023-11-22 19:47:33.310,2023-11-22 19:47:33.310,BlueBerryBook,"208257914","252 Buena Vista Ave",,Pomona,CA,"91766",US,"{}",,,{caseyl@blueberrybookusa.com}
395,"P.J. CHONBURI PARAWOOD CO., LTD.",0,2023-11-23 01:36:36.841,2023-11-23 01:36:36.841,"P.J. CHONBURI PARAWOOD CO., LTD.","0205543008455","928/1 Moo 1, Tambon Klong-Kew",,Amphoe Ban Bueng,"20","20220",TH,"{}",,,{chinjutha@pjparawood.com}
396,"CHALOTHORN INTERNATIONAL (2002) CO., LTD",0,2023-11-27 06:02:26.141,2023-11-27 06:02:26.141,"CHALOTHORN INTERNATIONAL (2002) CO., LTD","0205545004414","113 MOO 2, KLONG-KEW",,"BANBUNG,","20","20220",TH,"{}",,,{dgm234@hotmail.com}
397,"CUMULUS CO.,LTD",0,2023-12-04 02:52:08.975,2023-12-04 02:52:08.975,"CUMULUS CO.,LTD","24558934","9F.-1, NO.132, SEC. 2, NANJING E. RD., ZHONGSHAN DIST.",,TAIPEI CITY,"","104095",TW,"{}",,,{finance@bluextrade.com}
398,YourGreen2Go Inc,0,2023-12-07 20:34:25.113,2023-12-07 20:34:25.113,YourGreen2Go Inc,"273245879","2530 Spring Cypress Rd Suite 5a",,Spring,TX,"77388",US,"{}",,,{spatterson@yourgreen2go.com}
399,Priority1 Inc.,0,2023-12-12 19:28:05.640,2023-12-12 19:28:05.640,Priority1 Inc.,"710790065",PO Box 840808,,Dallas,TX,"75284-0808",US,"{}",,,{ashley.duncan@priority1.com}
400,FLORAFLEX CORP,0,2023-12-14 17:42:21.275,2023-12-14 17:42:21.275,FLORAFLEX CORP,"473657320","4804 LAUREL CANYON BLVD",,STUDIO CITY,CA,"91607",US,"{}",,,{mari@floraflex.com}
401,"Custom Foods, LLC",0,2023-12-14 20:52:12.523,2023-12-14 20:52:12.523,Custom Bakehouse,"954194222","14715 Anson Ave",,Santa Fe Springs,CA,"90670",US,"{}",,,{sgreenlaw@custombakehouse.com}
402,Hoya International Corporation,0,2023-12-15 21:19:35.709,2023-12-15 21:19:35.709,Hoya International Corporation,"270322622","2558 Strozier Ave",,South El Monte,CA,"91733",US,"{}",,,{customerservice@hoyashipping.com}
403,"Jiangsu Plus International Trading Co., Ltd",0,2023-12-16 02:39:25.206,2023-12-18 04:30:04.687,"Jiangsu Plus International Trading Co., Ltd","91321322MA1MCFTJ56","Liuzhai Industrial Park, Sangxu Town",,Shuyang County,JS,"292078",CN,"{}",,,{rachel@shnewming.com}
404,"GREENFUTURE INTERNATIONAL CO., LTD.",0,2023-12-18 01:49:39.320,2023-12-18 01:49:39.320,"GREENFUTURE INTERNATIONAL CO., LTD.","24601931","3F.-1, NO.2, LN. 17, SEC. 2, SANMIN RD., CENTRAL DIST., TAICHUNG CITY 40042, TAIWAN",,TAICHUNG,"","40042",TW,"{}",,,{cindy@greenfuture.tw}
405,kvanderhoff@yahoo.com,0,2023-12-18 21:07:18.552,2023-12-18 21:07:18.552,kvanderhoff@yahoo.com,,"5215 E. Chapman Ave. Sp. 9",,Orange,Ca,"92869",US,"{}",,,{kvanderhoff@yahoo.com}
406,"NINGBO CHANGYA PLASTIC (VIETNAM) CO., LTD",0,2023-12-19 08:36:26.670,2023-12-19 08:36:26.670,"NINGBO CHANGYA PLASTIC (VIETNAM) CO., LTD","3901260168","Lot A22.2A, 2B, 1C,B7.1 Road D6,C4,D7,C3 Thanh Thanh Cong Industrial Zone, An Hoa Ward, Trang Bang Town, Tay Ninh Province, Vietnam.",,Tay Ninh,SG,"843370",VN,"{}",,,{vn3@changya.vn}
407,"SHANGHAI FRIENDSHIP IMPORT & EXPORT CO., LTD.",0,2023-12-19 10:12:39.465,2023-12-21 08:47:16.278,"SHANGHAI FRIENDSHIP IMPORT & EXPORT CO., LTD.","91310115748784634G","ROOM 336, NO.2188, PUDONG AVENUE, PUDONG DISTRICT",,Shanghai,SH,"200120",CN,"{}",,,{redhawklx@vip.163.com}
408,"HUANG GUAN SPECIAL PRINTERY CO., LTD.",0,2023-12-20 08:26:55.896,2023-12-20 08:26:55.896,"HUANG GUAN SPECIAL PRINTERY CO., LTD.","86249846","No. 58, Yongyi Rd., Taiping Dist.",,Taichung City,"","41141",TW,"{}",,,{joseph.chou@sagaintl.com}
409,NUTEK CORPORATION,0,2023-12-20 08:49:30.963,2023-12-20 08:49:30.963,NUTEK CORPORATION,"12332594","NO.167 LANE 235 BAUCHIAU RD., XINDIAN DIST",,NEW TAIPEI CITY,"","231",TW,"{}",,,{joseph82511@hotmail.com}
410,udrive holding usa ltd,0,2023-12-21 00:22:19.121,2023-12-21 00:22:19.121,udrive holding,"822886634","4010 Georgia blvd",,san Bernardino,CA,"92407",US,"{}",,,{udriveleon28@gmail.com}
411,"Orlando Perez, P.A.",0,2023-12-22 04:14:45.464,2023-12-22 04:14:45.464,"Orlando Perez, P.A.","200553430","1231 SE 16th Ave",,Homestead,FL,"33035",US,"{}",,,{orlando@orlandoperez.com}
412,"Shantou zhuonuo Packaging Materials Co., Ltd.",0,2023-12-26 04:30:21.849,2023-12-26 04:30:21.849,"Shantou zhuonuo Packaging Materials Co., Ltd.","91440511MABPQYUF8D","3RD FLOOR, NO. 2, YUEGUI 14TH LANE. YUEPU STREET, JINPING DISTRICT,SHANTOU,GUANGDONG CHINA",,Shantou,GD,"515000",CN,"{}",,,{jacky@yourgreen2go.com}
413,"FIBER PACKAGING CO.,LTD",0,2023-12-27 03:38:47.256,2023-12-27 06:14:35.040,"FIBER PACKAGING CO.,LTD","11695254","CHASE BUSINESS CENTRE, 39-41 CHASE SIDE, LONDON, UNITED KINGDOM",,London,ENG,N14 5BP,GB,"{}",,,{kingsun_sumi@vip.163.com}
414,Arla Foods Inc,0,2023-12-27 18:47:53.971,2023-12-27 18:47:53.971,Arla Foods Inc,"221908494","106 Allen Rd Ste 401",,Basking Ridge,NJ,"07920",US,"{}",,,{lynn.haen@arlafoods.com}
415,TONGCHENG LOGISTICS INC,0,2023-12-29 09:16:50.569,2024-04-11 10:36:34.337,TONGCHENG LOGISTICS INC,"882005095","566 Vanguard Way STE A",,Brea,CA,"92821",US,"{}",,,{rren@tclogusa.com}
416,"Guangxi Fineshine Eco Technology Co.,Ltd",0,2023-12-29 09:55:03.725,2023-12-29 09:55:03.725,"Guangxi Fineshine Eco Technology Co.,Ltd","91451322MA5PLR7L3D","Bld No 7, Area A, Xiang Zhou Industrial Zone,Shi Long Town",,Lai Bin,GX,"00000",CN,"{}",,,{janki.zhang@fineshineeco.com}
417,Victory Maritime Services USA,0,2023-12-29 18:27:09.616,2023-12-29 18:27:09.616,Victory Maritime Services USA,"272502713","333 City Blvd W, Ste 1210",,Orange,CA,"92868",US,"{}",,,{otis@vgil.us}
418,PACRIMPETER41@GMAIL.COM,0,2023-12-31 11:10:14.049,2023-12-31 11:10:14.049,PACRIMPETER41@GMAIL.COM,,"24366 Nan Ct",,Diamond Bar,CA,"91765",US,"{}",,,{pacrimpeter41@gmail.com}
419,"Guangzhou Jierui Leather Co.,Ltd",0,2024-01-02 09:02:20.234,2024-01-02 09:02:20.234,"Guangzhou Jierui Leather Co.,Ltd","91440101MA9W136P9Q","No 3, Building 14, Junhao Sunshine Plaza, Shiling Town, Huadu district , Guangzhou , China, 510850",,Guangzhou,GD,"510850",CN,"{}",,,{2985412851@qq.com}
420,"GUANGZHOU CAI HUA LEATHER CO.,LTD",0,2024-01-03 05:57:34.075,2024-01-03 05:57:34.075,"GUANGZHOU CAI HUA LEATHER CO.,LTD","91440114331371252P","No. 13 Lane Village Xinyang, Shiling Town, Huadu district",,Guangzhou,GD,"510850",CN,"{}",,,{caihuabags@126.com}
423,bill polkinhorn inc,0,2024-01-09 00:51:56.529,2024-01-09 00:51:56.529,importclx@polkinhorn.us,,"2401 PORTICO BLVD",,CALEXICO,CA,"92231",US,"{}",,,{importclx@polkinhorn.us}
424,Teak Source USA,0,2024-01-09 18:58:10.766,2024-01-09 19:24:29.230,Living Source International,"813987813","5101 Densmore Ave",,Encino,CA,"91436",US,"{}",,,{atuvia@livingsourceintl.com}
425,Bobbleheads.com LLC,0,2024-01-11 00:56:06.178,2024-01-11 00:59:09.083,Royal Bobbles,"263047474","5885 Shiloh Road Suite 101",,Alpharetta,GA,"30005",US,"{}",,,{wroyal@bobbleheads.com}
426,AlkaViva LLC,0,2024-01-11 19:29:26.390,2024-01-11 19:34:42.862,AlkaViva LLC,"208871041","8745 Technology Way Suite C",,Reno,NV,"89521",US,"{}",,,{accounting@alkaviva.com}
427,Mutti USA Inc.,0,2024-01-12 22:05:02.751,2024-01-12 22:10:49.817,Mutti USA Inc.,"823395498","83 Wooster Heights Road - Suite 120",,Danbury,CT,CT,US,"{}",,,{karen.kugler@muttiusa.com}
428,Nostrac Shipping Limited,0,2024-01-13 18:31:57.677,2024-01-25 00:34:15.075,Nostrac Shipping Limited,"1705816962","92 Wellington road south",,Stockport,ENG,SK1 3UH,GB,"{}",,,{info@nostrac.co.uk}
429,Teofilo coffee company,0,2024-01-14 02:22:19.319,2024-01-14 02:27:54.129,Teofilo Coffee Company,"832168331","10525 los alamitos blvd",,Los Alamitos,CA,"90720",US,"{}",,,{teofilocoffeecompany@gmail.com}
430,aaronngor@pm.me,0,2024-01-16 01:12:20.684,2024-01-16 01:12:20.684,aaronngor@pm.me,,"21039 Brookline Drive",,Walnut,CA,"91789",US,"{}",,,{aaronngor@pm.me}
431,Nowhereclo LLC,0,2024-01-16 19:08:29.824,2024-01-16 19:11:06.718,Nowhere,"920545710","11309 Lyndell Ct",,Manassas,VA,"20112",US,"{}",,,{nowhereofficial22@gmail.com}
432,EPI VALVES TEXAS LLC,0,2024-01-17 16:57:25.445,2024-01-17 17:22:48.686,EPI VALVES TEXAS LLC,"844309339","22806 COMMERCIAL LANE",,TOMBALL,TX,"77375",US,"{}",,,{jojo@epitexas.com}
433,"Guangzhou Best Key trade Co.,Ltd",0,2024-01-18 10:03:33.519,2024-01-19 08:21:18.231,"Guangzhou Best Key trade Co.,Ltd","9144010MA5CMR1Y5Y","8 floor,151, Xiwan Road, Liwan",,Guangzhou,GD,"510100",CN,"{}",,,{bk02@bestkeycn.com}
434,"HUIZHOU XINZHONGZHENG SHOES CO.,LTD",0,2024-01-18 10:19:54.988,2024-01-24 03:48:51.818,"HUIZHOU XINZHONGZHENG SHOES CO.,LTD","91441323MA53L0DR73","NO.1-17, BUILDING A-13,HAIBIN 2 ROAD,HUANGBU TOWN",,HUIDONG COUNTY,GD,"516353",CN,"{}",,,{15815430488@139.com}
435,Jelly Belly Candy Company,0,2024-01-18 21:16:17.095,2024-01-18 21:25:11.137,Jelly Belly Candy Company,"942310808",One Jelly Belly Lane,,Fairfield,CA,"94533",US,"{}",,,{rmanlapit@jellybelly.com}
436,"Guangzhou Hotmarzz Trading Co.,Ltd",0,2024-01-19 03:02:13.100,2024-04-16 09:42:04.347,"Guangzhou Hotmarzz Trading Co.,Ltd","91440101MA9YAAQNX9","Room 601-6116, No.151-2 Xiwan Road, Liwan District",,Guangzhou,GD,"510000",CN,"{}",,,{jenny@hotmarzz.net}
437,"WENZHOU WEILUO TECHNOLOGY CO.,LTD",0,2024-01-19 04:25:32.749,2024-01-19 04:32:11.649,"WENZHOU WEILUO TECHNOLOGY CO.,LTD","91330304MA7GT6949W","ROOM 2302,BUILDING 1,CHUITAI PLAZA,787LOUDONG STREET,LOUQIAO STREET,OUHAI DISTRICT ,",,WENZHOU,ZJ,"325000",CN,"{}",,,{anna@bluesky-shoes.com}
439,"Promorion in Motion, Inc.",0,2024-01-22 18:47:39.105,2024-01-22 18:55:11.874,PIM Brands,"222721832",One PIM Plaza,,Park Ridge,NJ,"07656",US,"{}",,,{dnewbury@pimbrands.com}
440,"BIONTECH LIFE CO., LTD",0,2024-01-23 01:18:03.840,2024-01-23 01:18:03.840,"Manufacture of Radiation Apparatuses, Water Ionizer,Water Purifier, Filter","123-86-38628","298-15, Gongdan-ro(Geumjeong-dong)",,Gunpo-si,"41","15809",KR,"{}",,,{youbini@bion-tech.com}
441,sofiam@primeteamgroup.com,0,2024-01-23 21:49:26.982,2024-01-23 21:49:26.982,sofiam@primeteamgroup.com,,"310 e philadelphia st space 144",,ontrio,ca,"91761",US,"{}",,,{sofiam@primeteamgroup.com}
442,"WENLING HONGFAN TRADING CO.,LTD.",0,2024-01-24 03:35:10.779,2024-01-24 03:49:53.727,"WENLING HONGFAN TRADING CO.,LTD.",Business Registered Country / Region,"ROOM 201，BUILDING 16，OU KAI YUAN,HUAFU OUDIAN GARDEN,BINHAI AVENUE SONGMEN TOWN",,"WENLING CITY,TAIZHOU",ZJ,"317511",CN,"{}",,,{wenlinghongfan@163.com}
443,"XIAMEN HUAYIJIA IMPORT AND EXPORT CO.,LTD.",0,2024-01-24 03:55:04.419,2024-04-15 07:47:29.338,"XIAMEN HUAYIJIA IMPORT AND EXPORT CO.,LTD.","91350200072811718N","ROOM 8B5-2,XIANGYU BUILDING,NO.22,XIANGXING 4TH ROAD,(FREE TRADE ZONE)MODERN LOGISTICS PARK",,XIA MEN,FJ,"361000",CN,"{}",,,{boss.chen@fjfubang.com}
445,"Vietnam Yuzhan Packaging Technology Co., Ltd",0,2024-01-25 09:59:41.793,2024-04-18 08:28:09.345,"Vietnam Yuzhan Packaging Technology Co., Ltd","2300931934","Lot H2-01, Que Vo IP, Phuong Lieu ward",,Que Vo town,"56","16000",VN,"{}",,,{blair.chen@szyuto.com}
446,GUANGZHOU E1 TECHNOLOGY CORPORATION LTD.,0,2024-01-25 14:26:09.230,2024-01-25 14:47:25.422,DOING BUSINESS AS,"91440101MA9Y7L6X8A","Rm501,5th Floor,Block A,Xinyu Building,Shicha Road,Shijing Street",,guangzhou,GD,"51000",CN,"{}",,,{eoneshoes@e1sh.com}
447,"Roland Foods, LLC",0,2024-01-25 21:23:15.402,2024-01-25 21:23:15.402,"Roland Foods, LLC","135371294","71 West 23rd Street",,New York,NY,"10010",US,"{}",,,{rachael.febo@rolandfoods.com}
448,G-2 INC.,0,2024-01-25 23:11:09.941,2024-01-30 00:35:52.133,Little Jasmine/ Arroyo Kitchen,"475313771",Unit E,,Alhambra,CA,"91106",US,"{}",,,{info@g-2inc.com}
449,NINESUN INDUSTRIAL DEVELOPMENT LIMITED,0,2024-01-28 08:59:35.905,2024-01-28 09:13:16.195,ZHEJIANG CHENGTAI METAL PRODUCTS CO LTD,"65009447","Flat 7A, 7/F. Kimley Commercial Building, 142-146 Queen’s Road",,"Central, H.K.",,"999077",HK,"{}",,,{alex@longtimeco.com}
450,"Coyote Logistics, LLC",0,2024-01-31 17:39:12.700,2024-02-06 04:33:25.455,"Coyote Logistics, LLC","204688357","960 North Point Parkway Suite 150","",Alpharetta,GA,"30005",US,"{}","","",{sandra.barton@coyote.com}
451,"YVO PEOPLE, INC",0,2024-01-31 19:09:18.664,2024-01-31 19:12:03.612,YVO PEOPLE,"881011838","4433 Pacific Blvd",,Vernon,CA,"90058",US,"{}",,,"{guss@yvopeople.com,helen@yvopeople.com}"
452,CM Global Ent,0,2024-01-31 21:22:52.456,2024-01-31 21:41:57.904,CM Global,"843895841","12364 W. Alameda Pkwy",,Lakewood,CO,"80228",US,"{}",,,{rob@cmgbl.com}
453,A PACKING SOLUTION INC,0,2024-02-06 12:29:25.884,2024-03-12 11:28:33.349,A PACKING SOLUTION,"474470710","12677 Alcosta Blvd",,San Ramon,CA,"94583",US,"{}",,,{kevin.tw@mochiwafflemix.com}
457,"ASG Chemical Holdings, LLC.",0,2024-02-13 14:18:19.429,2024-02-13 14:27:06.580,ASG Chemie,"833379331","2603 NW 13th St.  UNit 231",,Gainesville,FL,"32609",US,"{}",,,"{koebrick@asgchemie.com,manissero@asgchemie.com}"
458,Formosa Hous,0,2024-02-13 22:24:31.914,2024-02-13 22:32:39.504,Formosa Hous,"920300265","217 N. Sunset Ave.",,City of Industry,CA,"91744",US,"{}",,,{danny@formosahous.com}
459,Ragasa Company INC,0,2024-02-13 22:53:48.709,2024-02-13 22:53:48.709,Ragasa International LLC,"852258034","2001 Timberloch Pl Suite 500",,The Woodlands,TX,"77380",US,"{}",,,{sreyes@ragasa.com.mx}
460,Cambie Inc,0,2024-02-14 17:10:07.433,2024-02-14 17:10:07.433,Cambie,"833161880","10630 Newkirk St. Suite 100",,Dallas,TX,"75220",US,"{}",,,{dfoley@cambie.com}
461,"Bauducco Foods, Inc.",0,2024-02-14 19:04:19.045,2024-03-01 10:23:32.813,Bauducco Foods,"202707807","1705 NW 133rd avenue",,Miami,FL,"33182",US,"{}",,,{maritzan@bauduccofoods.com}
462,"SHANDONG WEIRAN BUILDING MATERIALS CO., LTD",0,2024-02-15 04:41:08.713,2024-02-19 06:38:26.835,"SHANDONG WEIRAN BUILDING MATERIALS CO., LTD","91371300MA3M1X6813","1203-134, No. 100, LinGong Road, Linyi Comprehensive Trade Zone","",Linyi,SD,"276000",CN,"{}","","",{sales02@weiranbuild.com}
463,"Flexcargo USA, Inc.",0,2024-02-15 23:21:44.924,2024-02-15 23:25:38.729,"Flexcargo USA, Inc.","934877306","444 W. Ocean Suite 800",,Long Beach,CA,"90802",US,"{}",,,"{eric@flexcargousa.com,janeje@flexcargousa.com,katek@flexcargousa.com,melody@flexcargousa.com}"
464,MILAS FOODS LLC,0,2024-02-19 19:21:58.545,2024-02-19 19:21:58.545,ELMA FARMS,"271340188","2121 PONCE DE LEON BLVD SUITE 340",,CORAL GABLES,FL,"33134",US,"{}",,,{cramirez@milasfood.com}
465,Nazareth company LLC,0,2024-02-19 23:39:38.237,2024-02-20 03:54:50.748,Eleart,"863414163","4280 E Iowa ave",,Denver,CO,"80222",US,"{}",,,{franklingutierrez385@gmail.com}
466,Chanvra Materials,0,2024-02-20 23:45:42.753,2024-02-21 00:04:40.001,American Natural Materials,"843363528","1317 Elfe St",,Daniel Island,SC,"29492",US,"{}",,,{materials@chanvra.org}
467,J&M Foods Inc.,0,2024-02-21 19:28:20.903,2024-03-06 07:47:32.933,J&M Foods Inc.,"710700498","9100 Frazier Pike, Little Rock, AR 72206",,LITTLE ROCK,AR,"72206",US,"{}",,,{jthibault@jm-foods.com}
468,"Onuge Personal Care (Guangdong) Manufacturer Group Co., LTD.",0,2024-02-22 01:16:35.871,2024-02-23 03:04:08.124,"Onuge Personal Care (Guangdong) Manufacturer Group Co., LTD.","9144011178120497XE","No.28 Longhai Road, Huadu District",,Guangzhou,GD,"510812",CN,"{}",,,{wikkoliu@onuge.com.cn}
470,Petunia Products Inc,0,2024-02-27 17:37:52.054,2024-02-27 17:46:04.479,Billion Dollar Beauty,"542168706","15 Hammond Ste 301",,Irvine,CA,"92618",US,"{}",,,{julianne.galchutt@billiondollarbrows.com}
471,"ESP Shibuya Enterprises, Inc.",0,2024-02-27 23:22:08.422,2024-02-27 23:29:20.245,The ESP Guitars Co.,"954709399","5433 W San Fernando Rd",,Los Angeles,CA,"90039",US,"{}",,,{jennifer@espguitars.com}
472,Products Engineering Corp,0,2024-02-27 23:52:33.496,2024-02-27 23:56:50.882,PEC Tools,"811469110","2645 Maricopa Street",,Torrance,CA,"90503",US,"{}",,,{nyuan@pectools.com}
473,"Process DSG, Inc.",0,2024-02-28 16:46:01.613,2024-02-28 16:48:38.195,Pasolumination,"461991350","145 W. 17th St.",,Paso Robles,CA,"93446",US,"{}",,,{heather@processdsg.com}
474,"IMEXIN, LLC",0,2024-02-28 19:34:57.016,2024-02-28 19:41:13.762,"IMEXIN, LLC","463360576","14406 INVESTMENT AVE.",,LAREDO,TX,"78045",US,"{}",,,{marinarogil@imexinllc.com}
475,"GRUPO ROGIL LOGISTICS, LLC.",0,2024-02-28 19:54:02.862,2024-02-28 19:56:04.993,"GRUPO ROGIL LOGISTICS, LLC.","833771239","14406 INVESTMENT AVE",,LAREDO,TX,"78045",US,"{}",,,{marinarogil@imexinllc.com}
477,"Bliss Solar, LLC",0,2024-02-28 23:09:39.751,2024-02-28 23:14:18.817,"Bliss Solar, LLC","824861980","185 Great Neck Rd.",,Great Neck,NY,"11021",US,"{}",,,{ndacha@blisssolar.com}
478,Yamato Transport USA INC,0,2024-02-29 17:46:52.798,2024-02-29 17:50:53.462,Yamato,"133019110","145-61 155th st",,jamaica,NY,"11434",US,"{}",,,{jimmywong@yamatoamerica.com}
479,I-Ships International LLC,0,2024-02-29 19:57:21.412,2024-02-29 20:04:39.931,one world cargo solutions,"834175225","21218 St Andrews Blvd #620",,boca raton,FL,"33433",US,"{}",,,{info@ishipsinternational.com}
480,"Baorou Paper Product Co., Limited",0,2024-03-01 08:04:27.212,2024-03-01 08:15:50.083,Baorou paper,"3178689","RM 1532 15F, PACIFIC TRADE CENTRE",,KOWLOON BAY,,"999077",HK,"{}",,,{baoroupaper@outlook.com}
481,Haque International Logistics Corp,0,2024-03-04 00:27:08.418,2024-03-04 00:47:36.292,Haque International Logistics Corp,"921905271","20507 Hillside Avenue, Suite 25",,Hollis,NY,"11423",US,"{}",,,{mhossain@haque-int.com}
483,Lux Los Angeles LLC,0,2024-03-05 18:54:19.351,2024-03-05 23:04:02.313,NA,"474030135","5981 Malburg Way",,Vernon,CA,"90058",US,"{}",,,"{adnan@lux-la.com,info@marketboxanalyst.com}"
485,ALWAYS HOME INTERNATIONAL,0,2024-03-07 20:09:57.088,2024-03-07 20:12:12.140,ALWAYS HOME INTERNATIONAL,"263562932","125 michael drive",,SYOSSET,NY,"11791",US,"{}",,,{jsteinberg@alwayshomeint.com}
486,"Tianjin Excellent International Trade Co.,Ltd",0,2024-03-08 02:32:53.139,2024-03-13 06:32:29.476,"Tianjin Excellent International Trade Co.,Ltd","911201053004250000","3316, King's Landing Building, Guangfu Street, Hebei District, Tianjin",,Tianjin,TJ,"300070",CN,"{}",,,{aikeabcd@126.com}
487,"Halykoo(Tianjin) International Trade Co.,LTD.",0,2024-03-13 12:22:03.362,2024-03-14 01:24:02.584,"Halykoo(Tianjin) International Trade Co.,LTD.","91120101MA06AB9A6M","B-1505,-1505,Kangning Building 10 Xikang Road,Xinxing Street,Heping District,Tianjin.",,Tianjin,TJ,"300051",CN,"{}",,,{aikeabcd@126.com}
488,JASPERS GLOBAL MANUFACTURING INC,0,2024-03-14 06:20:10.235,2024-03-14 06:20:10.235,JASPERS LOGISTIC GROUP,"611827230","1800 S Turner Ave",,Ontario,CA,"91761",US,"{}",,,{info@jasperspack.com}
490,"INTCO INTERNATIONAL (HK) CO., LIMITED",0,2024-03-16 01:50:42.046,2024-03-16 01:50:42.046,"INTCO INTERNATIONAL (HK) CO., LIMITED","52244793",SUITE 1606 16TH FLOOR TOWER 2 THE GATEWAY,,HARBOUR CITY,"","999077",HK,"{}",,,{lenaqiu@intco.com.cn}
492,joseph951623@gmail.com,0,2024-03-18 21:47:07.393,2024-03-18 21:47:07.393,joseph951623@gmail.com,,"3132 E Hollingworth St.",,West Covina,CA,"91792",US,"{}",,,{joseph951623@gmail.com}
493,"NINGBO FREE TRADE ZONE KINGSHINE INTERNATIONAL TRADING CO.,LTD",0,2024-03-19 01:20:17.339,2024-03-19 01:20:17.339,Exporter,"91330201786752035U","4th Fl., Block C,No.418 Qiyun Road",,ningbo,ZJ,"315012",CN,"{}",,,{sunny@cnkingshine.com}
496,Light Santa Barbara LLC,0,2024-03-23 02:17:25.977,2024-03-23 02:23:02.662,Light and Home,"813573108","18 W. Calle Laureles",,"Santa Barbara, CA, 93105",CA,"93105",US,"{}",,,{william@lightandhome.com}
498,"Xiamen Ding Brothers Crafts Co.,Ltd.",0,2024-03-28 09:08:26.000,2024-03-28 09:19:14.638,Resin Crafts-Bobblehead dolls,"91350212079352016R","Room 301, No.155 Siming Park,",,XIAMEN,FJ,"361199",CN,"{}",,,{dyawen@139.com}
499,"1Perfectchoice Inc.",0,2024-03-28 23:19:05.120,2024-03-28 23:19:05.120,cathy@1perfectchoice.com,,"21908 Valley Blvd.",,Walnut,CA,"91789",US,"{}",,,{cathy@1perfectchoice.com}
500,"Xiamen Dingshi Trading Co.,Ltd.",0,2024-04-01 05:10:10.903,2024-04-02 09:26:47.100,"Xiamen Dingshi Trading Co.,Ltd.","91350211MA33CM393A","Room 707, No.5,Longhe Erli,Jimei District",,XIAMEN,FJ,"361100",CN,"{}",,,{dyawen@139.com}
501,KeHE Distributors LLC,0,2024-04-02 14:34:18.169,2024-04-02 14:37:41.965,KeHE Distributors LLC,"271726000","601 S. ROCKEFELLER AVE",,ONTARIO,CA,"91761",US,"{}",,,{corey.wells@dpispecialtyfoods.com}
502,"KeHE DISTRIBUTORS, LLC",0,2024-04-02 14:54:04.644,2024-04-02 14:58:42.802,"KeHE DISTRIBUTORS, LLC","271726000","1245 E. Diehl Rd., Suite 200",,Naperville,IL,"60563",US,"{}",,,{dpi-ar@dpispecialtyfoods.com}
503,US Tamex Corp,0,2024-04-02 18:12:16.127,2024-04-02 18:27:16.922,Bella Esprit,"954654449","2090 S. Baker Ave",,Ontario,CA,"91761",US,"{}",,,{tammy@ustamex.com}
505,Spenarome,0,2024-04-08 20:50:50.370,2024-04-08 20:50:50.370,Spenarome,"262928481","2540 Jardin drive",,Weston,FL,"33327",US,"{}",,,{hspencer@spenarome.com}
506,Coyote Holdings,0,2024-04-10 01:35:16.157,2024-04-10 01:39:49.749,Coyote Holdings,"369509059","3105 WOODPINE CT",,Rochester,MI,"48306",US,"{}",,,{cmikenaz@aol.com}
508,SJ TRUCKING AND LOGISTICS LLC,0,2024-04-17 17:07:37.244,2024-04-17 17:11:49.162,SJ TRUCKING AND LOGISTICS LLC,"464805294","140 WESTERN MARYLAND PKWY",,HAGERSTOWN,MD,"21740",US,"{}",,,{sam@sjtal.com}
509,Conjetta Investments LLC,0,2024-04-18 21:44:54.014,2024-04-18 21:49:26.775,Conjetta Designs,"841797821","1314 S 18th St.",,Saint Louis,MO,"63104",US,"{}",,,{info@conjettadesigns.com}
510,Lilola Home,0,2024-04-19 00:09:36.858,2024-04-19 00:16:00.668,Lilola Home,"832421044","1261 E Airport Dr",,Ontario,CA,"91761",US,"{}",,,{chad@lilolahome.com}
511,Vita Forte Inc,0,2024-04-26 17:29:18.106,2024-04-26 17:37:28.907,Vita Forte Inc,"454060123","19350 Cachagua Rd",,Carmel Valley,CA,"93924",US,"{}",,,{carlos@vita-forte.com}
514,Mango Furniture co. inc,0,2024-04-29 15:40:49.722,2024-04-29 15:52:01.357,Mango Furniture co. inc.,"824345279","919 GARDEN HWY",,YUBA CITY,CA,"95991",US,"{}",,,{rosie@mangofurnitureinc.com}
515,Updated Furniture Wholesale LLC,0,2024-04-30 01:23:39.889,2024-04-30 01:29:02.268,Updated Furniture,"810734676","2125 exchange drive",,arlington,TX,"76011",US,"{}",,,{daniel@goupdated.com}
516,"Updated Furniture of Texas, Inc.",0,2024-04-30 01:29:40.152,2024-04-30 01:39:36.127,Updated Furniture,"582485160","6546b petropark dr",,houston,TX,"77041",US,"{}",,,{daniel@goupdated.com}
517,"Updated Furniture, Inc.",0,2024-04-30 01:37:01.913,2024-04-30 01:37:54.011,Updated Furniture,"650225612","4915 NW 159th ST",,Hialeah,FL,"33014",US,"{}",,,{daniel@goupdated.com}
518,"Update International, Inc.",0,2024-04-30 01:38:16.650,2024-04-30 01:39:00.452,Updated Furniture,"650063471","247 Power Court",,Sanford,FL,"32771",US,"{}",,,{daniel@goupdated.com}
519,QUARTZ LOGISTICS INC,0,2024-05-02 18:50:42.362,2024-05-02 18:56:09.639,QUARTZ LOGISTICS INC,"273262405","780 S. NOGALES ST SUITE D",,CITY OF INDUSTRY,CA,"91748",US,"{}",,,{ar@quartzlax.com}
521,CALIFORNIA WHEEL DISTRIBUTOR,0,2024-05-03 20:07:03.002,2024-05-15 19:29:50.239,CALIFORNIA WHEEL DISTRIBUTOR INC,"850841994","741SALLENSTSTEA",,SAN BERNARDINO,CA,"92408",US,"{}",,,{californiawheeldist@gmail.com}
522,Vietnam,0,2024-05-08 02:19:07.054,2024-05-08 02:23:40.253,Vietnam,"0316297646",HCMC,,HO CHI MINH CITY,SG,"70000",VN,"{}",,,{anthea.sgn@3w-logistics.com}
523,Topocean Consolidation Service (Los Angeles) Inc,0,2024-05-15 23:29:42.948,2024-05-18 00:41:34.344,Topocean Consolidation Service. (LAX),"954515106","2727 WORKMAN MILL RD",,CITY OF INDUSTRY,CA,"90601",US,"{}",,,{ar@topocean.com}
524,Danson Consultants Inc.,0,2024-05-17 21:52:37.367,2024-06-12 02:37:04.346,CNB Beverages,"320508243","2104 Galveston St.",,San Diego,CA,"92110",US,"{}",,,{josh@cnbbeverages.com}
525,"KAV America AG, Inc.",0,2024-05-20 22:05:38.657,2024-05-20 22:13:36.605,"KAV America AG, Inc.","454129572","422 E. Commercial Rd",,"San Bernardino, CA",CA,"92408",US,"{}",,,{arpay@kavamerica.com}
526,"Suwerte International, LLC",0,2024-05-21 19:08:54.270,2024-05-21 19:12:22.340,"Suwerte International, LLC","853820703","1737 Cripple Creek Dr #2",,CHULA VISTA,CA,"91915",US,"{}",,,{suwerteintl@gmail.com}
527,Gallina Foods and Imports INC.,0,2024-05-24 13:17:47.713,2024-05-24 13:22:57.839,Gallina Foods and Imports INC.,"821893152","242 Pilgert St.",,Alburtis,PA,"18011",US,"{}",,,"{mgallina@ymail.com,tonygallina31@gmail.com}"
531,Eden Organic Grains Inc,0,2024-06-07 17:47:37.394,2024-06-07 17:53:32.734,WeFARM Organics,"814912244","13528 Excelsior Dr",,Santa Fe Springs,CA,"90670",US,"{}",,,{skim@wefarmorganics.com}
532,"F&B Products Asia Co., Ltd.",0,2024-06-20 10:39:00.950,2024-06-20 10:45:50.360,"F&B Products Asia Co., Tld.","0105563094196","53 Saeng Thip Alley, Phra Khanong Nuea",,Watthana Bangkok,"10","10110",TH,"{}",,,{romeo.ramos@supremebev.asia}
534,"TRANSPORT EXPERTS INTERNATIONAL, LLC",0,2024-06-29 16:05:04.865,2024-06-29 16:10:38.213,TEI,"861516045","1910 Pacific Ave",,Dallas,TX,"75201",US,"{}",,,{info@transportexpertsinternational.com}
537,Simple Forwarding Inc,0,2024-07-11 13:17:34.322,2024-07-11 13:20:11.184,Simple Forwarding,"814535093","1113 Route 17M",,Monroe,NY,"10950",US,"{}",,,{abe@simpleforwarding.com}
539,Redline Custom Per4mance Imports LLC,0,2024-07-16 18:33:12.828,2024-07-16 18:38:16.404,RCP LLC,"882767457","136 Horse Pin Place",,Harvest,AL,"35749",US,"{}",,,{casey042807@yahoo.com}
541,Rolling Unit Inc,0,2024-07-18 14:54:57.542,2024-07-18 15:19:30.733,Rolling Unit US,"372072717","7901 4th Street North Suite 300",,"St, Petersburg",FL,"33702",US,"{}",,,{luke.chiarenza@maru.ee}
543,Wishbone Organics Inc,0,2024-07-23 18:20:04.595,2024-07-23 18:24:14.691,Wishbone Organics Inc,"825336720","8330 SW 12th ST",,Pembroke Pines,FL,"33025",US,"{}",,,{juan@wishboneorganics.com}
544,Sud Scrub LLC,0,2024-07-26 19:57:56.122,2024-07-26 20:00:24.134,Sud Scrub,"852316304","8208 E Ravendale Rd.",,San Gabriel,CA,"91775",US,"{}",,,{admin@sudscrub.com}
546,"Roilife Industrial Co.,Ltd.",0,2024-07-30 09:07:49.487,2024-07-30 09:07:49.487,阳江市阳东区荣欣工贸有限公司,"91441723MA53WQPC1U","NO.31,33 ,Hezhang Middle Road,Dongcheng Town,Yangdong District",,Yangjiang City,GD,"52993",CN,"{}",,,{info@roilife.com.cn}
548,"Traffic Tech International US, LLC",0,2024-08-05 20:25:04.430,2024-08-06 13:13:56.364,"Traffic Tech International US, LLC","202618420","10201 NW 112TH AVE",,Medley,FL,"331781057",US,"{}",,,{mtasse@traffictech.com}
549,"HUBEI DONGHAO TECHNOLOGY CO .,LTD",0,2024-08-09 08:17:05.645,2024-08-09 08:43:51.214,"91422825MA7N5Y940X","91422825MA7N5Y940X","BUILDING F SHUANGCHUANG INDUSTRIAL PARK,JIAOYUAN TOWN ,XUANEN COUNTY,ENSHI AUTONOMOUS PREFECTURE,HUBEI PROVINCE,CHINA",,HUBEI PROVINCE,HB,"445501",CN,"{}",,,{anndy@donghaomelamine.com}
550,Mars Ventures Inc,0,2024-08-12 19:19:45.305,2024-08-12 19:19:45.305,Mars Ventures Inc,"320635285","5210 Limestone Hill Ln",,Sugarland,TX,"77479",US,"{}",,,{usa.mars.ventures@gmail.com}
551,SWIFT CARGO INC,0,2024-08-21 21:05:40.847,2024-08-21 21:05:40.847,abby@swiftcargo.com,,"16700 VALLEY VIEW AVE STE 300B",,LA MIRADA,CA,"90638",US,"{}",,,{abby@swiftcargo.com}
552,We the Wild USA Inc,0,2024-08-22 19:26:12.792,2024-08-22 21:29:12.525,We the Wild,"301297622","531 Polk Street Bldg 14",,Houston,TX,"77023",US,"{}",,,{josh@wethewild.co}
